venue_name,sub_venue_name,address_full,city,province,latitude,longitude,juz_per_night,reader_names,whatsapp_number
Wits Medical School JK,,Wits Medical School JK,Wits Medical School JK,SA,-26.1762225,28.0463094,1.5,"'Hfz Dr Zakariyya Ellemdin, Hfz Dr Muhammad Moola, Hfz Dr Muhammad Shaikh'",
Musallah Abu Bakr,,Musallah Abu Bakr,Musallah Abu Bakr,SA,-29.8270959,30.9592531,1.25,"'Hafiz Yunus Randeree, Hafiz Sahal Ismail, Qari Hamza Desai'",
Mountain Rise Jamaat Khana,,Mountain Rise Jamaat Khana,Mountain Rise Jamaat Khana,SA,-29.58258,30.4038,2,"'Qari Muhammed Zaheer Akoo, Qari Shuaib Hamza, Haafidh Luqmaan Akoo'",
Rust-Ter-Vaal Masjid,,Rust-Ter-Vaal Masjid,Rust-Ter-Vaal Masjid,SA,-26.5722305,27.9439252,1,"'Hafidh Fuaad Karani, Hafidh Mohammed Cajee, Hafidh Moosa Sujee, Hafidh Bilal Karani, Hafidh Salmaan Bulbulia'",
Masjid Un Noor,,Masjid Un Noor,Masjid Un Noor,SA,-26.5669452,27.941559,1,"'Moulana Abdurrahman Kolia, Qari Abdur-Rahman Dasoo, Qari M Musharraf Saiyed, Qari Usaamah Jeena'",
Masjid Sulaymaan,,Masjid Sulaymaan,Masjid Sulaymaan,SA,-26.3290219,27.84898,1,"'Muhammad Cassim, Ml Muhammad Sa Ad, Hfz Abdullah Akalwaya, Hfz Talha Motara, Hfz Rayyaan'",
Northcliff Musallah Ext 12,,Northcliff Musallah Ext 12,Northcliff Musallah Ext 12,SA,-26.1578128,27.9634473,1.5,'Zeynul Aabideen Ganchi',
Masjid Umar Faruq,,Masjid Umar Faruq,Masjid Umar Faruq,SA,-26.5543068,27.9392672,1,"'Ml Luqmaan Puncbaya, Hfz Waleed Tickley, Hfz Mustufa Saiyed, Hfz Zuhair Tikly'",
Peacevale Musallah,,Peacevale Musallah,Peacevale Musallah,SA,-28.1601833,30.2500203,1.5,"'Hafez Zaahid Ismail, Hafez Muhammad Akoojee'",
Banglawali Masjid,,Banglawali Masjid,Banglawali Masjid,SA,-26.3267542,27.830662,1,'Qari Ilyas & Crew',
Masjid Taqwa,,Masjid Taqwa,Masjid Taqwa,SA,-25.668436,27.241703,1,"'Molana Muhammad Waja, Molana Muhammad Khidr Taahir, Hafidh Ubaidullah Adam(Ubz Boobz)'",
Residence - Br Muhammad Minty,,Residence - Br Muhammad Minty,Residence - Br Muhammad Minty,SA,-25.4739273,30.9479117,1.5,"'Moulana Haroon Choksi, Hafidh Zakwaan Patel, Hafidh Muhammad Rajah, Hafidh Rameez Ebrahim, Hafidh Tahir Ahmad, Hafidh Hanzalah Cajee'",
Masjid Rahmah,,Masjid Rahmah,Masjid Rahmah,SA,-25.6444141,27.2385195,1,"'Molana Yusuf Hathurani, Molana Zafar Ahmed Panchbaya, Molana Ahmed Ravat'",
Masjid Farooq-E-A'zam,,Masjid Farooq-E-A'zam,Masjid Farooq-E-A'zam,SA,-29.672014,31.0373075,1,"'Haafiz Ahmed Mahomed, Haafiz Yusuf Patel, Ml.Zayd Mahomed'",
Masjid Abu Bakr Siddiq,,Masjid Abu Bakr Siddiq,Masjid Abu Bakr Siddiq,SA,-28.3179596,23.0676298,1,"'Imran, Adam'",
Kathu Masjid Musalaa,,Kathu Masjid Musalaa,Kathu Masjid Musalaa,SA,-27.7052347,23.0491974,1,"'Adam, Bilal, Yusuf'",
Darul Ihsan Centre,,Darul Ihsan Centre,Darul Ihsan Centre,SA,-29.7991065,30.984334,2,"'Mufti Shafique Jakhura, Moulana Muhammad Jadwat, Moulana Safwaan Danka'",
Residence,,Residence,Residence,SA,-26.1889635,28.2921325,2,"'Nabeel Asmal, Imtiyaaz Ghanchi, Muhammed Mayat, Yusuf Akoojee'",
Empangeni Jummah Musjid,,Empangeni Jummah Musjid,Empangeni Jummah Musjid,SA,-28.7386926,31.8844554,1,"'Mufti Arshad Rawat, Moulana Safwaan Khan, Hfz Muhamed Hansa, Hfz Adil Amuri'",
Masjid Salmaan Zakpark,Classroom,Masjid Salmaan Zakpark,Masjid Salmaan Zakpark,SA,-26.3701096,27.8924019,1.5,"'Bilal Cassim, Ismail Cassim, Imtiaaz Choonara, Junaid Hussain, Mol Zaahed'",
Houghton Masjid (West Street),,Houghton Masjid (West Street),Houghton Masjid (West Street),SA,-26.1635235,28.057528,1,"'Qari Yusuf Osman, Qari Huzaifa Ayoob Essack'",
Aldea,,Aldea,Aldea,SA,-26.1828094,28.2760037,3,"'Abdullah Osman, Abdullah Gazi'",
Musjid Awliya,,Musjid Awliya,Musjid Awliya,SA,-29.7958824,31.0070708,1.25,'Ml Idrees Satharia',
MSA-UFS Musallah,,MSA-UFS Musallah,MSA-UFS Musallah,SA,-29.1072856,26.1899606,1.25,"'Hafiz Dr Abdullah Saeed, Hafiz Adam Panchbaya, Hafiz Luqmaan Kalla, Hafiz Mohammed Yusuf Patel'",
Masjid Ud Duha,,Masjid Ud Duha,Masjid Ud Duha,SA,-26.074665,28.0471046,1,"'Moulana Suhail Sirkhoth, Hafiz Yousuf Mahomedy, Hafiz Muhammad Deshmukh, Hafiz Ubaadah Ntiya'",
Fourways Islamic Centre,,Fourways Islamic Centre,Fourways Islamic Centre,SA,-26.0285017,27.9762504,1,"'Hafiz Yusuf Osman, Moulana Abdurrahman Mia, Hafiz Muhammad'",
Sandown Musallah,,Sandown Musallah,Sandown Musallah,SA,-26.0951778,28.0646868,1,"'Mufti Zahid Loonat, Moulana Mohammed Chopdat'",
Masjid Al Huda,,Masjid Al Huda,Masjid Al Huda,SA,-26.2421138,28.0117192,1,"'Ml. Fayyaaz Jeena, Ml. Abdullah Daya, Ml. Abdurahman Behra, Hf. Umar Adam, Hf. Muaaz Patel'",
Masjid Al Huda ,Upper Level,Masjid Al Huda ,Masjid Al Huda ,SA,-26.2421138,28.0117192,3,"'Ml. Abubakr Behra, Hf. Imran Bachcha'",
Ballito Jamiah Musjid,,Ballito Jamiah Musjid,Ballito Jamiah Musjid,SA,-29.5226328,31.1986458,1,"'Ahmed Vally, Mohammed Mitha, Shaakir Patel, Ismail Vally, Abdullah Alli, Faheem Vally'",
Petrocam,,Petrocam,Petrocam,SA,-26.0844148,28.0859771,6,'Ml Abdurrahmaan Saloojee',
Autosport Motor City (Vmax Square),,Autosport Motor City (Vmax Square),Autosport Motor City (Vmax Square),SA,-26.1797945,28.2792579,2,"'Hafidh Imraan Akoodie, Hafidh Muhammed Peer, Hafidh Luqmaan Vasgaray, Hafidh Salmaan Vasgaray, Hafidh Nabeel Hassen, Hafidh Nadeem Moola'",
Masjid Abi Zar,,Masjid Abi Zar,Masjid Abi Zar,SA,-26.32166,27.84079,1,"'Ml Muhammed Sujee, Ml Ridwaan Gani, Hfz Muhammed Daya, Hfz Muhammed Monia'",
Masjid Ul Islam,,Masjid Ul Islam,Masjid Ul Islam,SA,-26.1785319,27.7038563,1.25,"'Hf. Ahmed Mohammed, Hf. Abdul Raheem Shaik, Mf. Abu Bakr Mohammed, Anas Lamsalli 1St 10 Nights'",
Musalla Al Ikhlaas,,Musalla Al Ikhlaas,Musalla Al Ikhlaas,SA,-29.8268038,31.0002234,1,"'Haafidh Ahmad Hassim, Haafidh Muhammad Bin Ml Imraan Rajah, Haafidh Yusuf Bin Ml Obeidullah Rawat'",
Rainbow Masjid,,Rainbow Masjid,Rainbow Masjid,SA,-26.3189427,27.835493,1,"'Nazir Ahmed Jassat, Yusuf Jassat, Safwaan Jassat, Masud Goolbhai, Ziyaad Varachia'",
Riyadh Musallah,,Riyadh Musallah,Riyadh Musallah,SA,-29.649524,31.0638076,1.25,"'Haafidh Ebrahim Patel, Moulana Ahmed Mahomedy, Haafidh Mahomed Patel'",
Masjidul Anwaar,,Masjidul Anwaar,Masjidul Anwaar,SA,-28.737887,24.7447241,1.25,'Hafiz Zaid Waleed',
Uwais Qarni Islamic Centre,,Uwais Qarni Islamic Centre,Uwais Qarni Islamic Centre,SA,-26.256428,28.0131114,1.25,'',
Lehaw Emoyeni Mall Masjid,,Lehaw Emoyeni Mall Masjid,Lehaw Emoyeni Mall Masjid,SA,-25.40905,31.13224,1,'Sheikh Qassim Muhammad Mbendu',
Estcourt Islamic Centre,,Estcourt Islamic Centre,Estcourt Islamic Centre,SA,-29.0022,29.85575,1.5,"'Hafez Muraad Mwawa, Hafez Osama Khan, Hafez Hamzah Hansrod, Hafez Suhail Hanslod'",
Masjidul Asimari,,Masjidul Asimari,Masjidul Asimari,SA,-34.0276791,18.6771073,1,'Sh Musa Akibu Ayami',
Sunninghill Musallah,,Sunninghill Musallah,Sunninghill Musallah,SA,-26.0376447,28.0786464,1,"'Aqeel Ganchi, Mohammed Ganchi, Shihab Bachus, Ahmed Osman'",
Sayidina Ubay Bin Ka'b Musallah,,Sayidina Ubay Bin Ka'b Musallah,Sayidina Ubay Bin Ka'b Musallah,SA,-26.1157209,28.0099743,1,"'Ml. Abdur Rahman Laily, Hfz. Yaseen Tsietsi, Hfz. Sohail Haffejee, Hfz. Salahudden Sa‹d Khalifah'",
Randgate Musallah Rahmah,,Randgate Musallah Rahmah,Randgate Musallah Rahmah,SA,-26.1699746,27.683992,1.25,"'Hf Mohammed Saeed Mullah, Hf Mohammed Mullah'",
27 Congo Road Emmarentia,,27 Congo Road Emmarentia,27 Congo Road Emmarentia,SA,-26.1678492,28.0091464,1.5,"'Muhammad Laher, Zaahid Laher, Muzammil, Arshad, Zaim, Sheik Abdul Aziz'",
Masjid Ayesha,,Masjid Ayesha,Masjid Ayesha,SA,-25.8157863,28.0930489,1,"'Qari Abdus Salaam, Qari Haroon, Hfz Messihullah, Hfz Muhammed'",
Shakaskraal Musjid,,Shakaskraal Musjid,Shakaskraal Musjid,SA,-29.4498923,31.2206929,1,"'Qari Zakariyya Dudan, Hafiz Muhammed Akoob, Hafiz Sahal Manga, Hafiz Hozaifah Dawood'",
Rocket Close,,Rocket Close,Rocket Close,SA,-26.1965364,28.284305,1.5,"'Muhummad, Ridwaan, Zaakir'",
Westcliff Masjid,,Westcliff Masjid,Westcliff Masjid,SA,-29.9111867,30.8948376,1.25,"'Qari Abdul Rashid Hansrod, Hafiz Ebrahim Hansrod'",
Howick West Masjid,,Howick West Masjid,Howick West Masjid,SA,-29.51017,30.22437,1,"'Hafiz Abdur Rahman Amod, Hafiz Aslam Omar, M Zakariyya Adamjee, Hafiz Muhammed Hoosen, Hafiz Zakariyya Omar'",
Zahra Square Musallah,,Zahra Square Musallah,Zahra Square Musallah,SA,-26.1995901,28.3017638,1,"'Hafiz Ebrahim Seedat, Hafiz Yusuf Karbelkar, Hafiz Zaid Desai'",
Darul Uloom Zakariyya,,Darul Uloom Zakariyya,Darul Uloom Zakariyya,SA,-26.3586546,27.9002499,3,'Moulana Saloojee',
Madina Musallah Menlyn Mall,,Madina Musallah Menlyn Mall,Madina Musallah Menlyn Mall,SA,-25.7832822,28.274954,1,'Mufti Jameel Azhari',
CMC Leonie Street Masjid,,CMC Leonie Street Masjid,CMC Leonie Street Masjid,SA,-25.8573601,28.2022721,1.5,"'Haafidh Muhammed Abad, Haafidh Soyab Chippa, Haafidh Mohammed Patel'",
Masjid Tayyiba,,Masjid Tayyiba,Masjid Tayyiba,SA,-29.1554131,26.2556392,1,"'Haafidh Zakariyya Mangera, Haafidh Taahir Mangera, Haafidh Siddiq Dhorat'",
NMU Jamaat Khana,,NMU Jamaat Khana,NMU Jamaat Khana,SA,-34.0009942,25.6714865,1.25,"'Hfz Muhammed Essack, Hfz Muhammed Kaka, Hfz Muhammed Bhobat, Hfz Zaeem Carrim, Hfz Ismail Motala'",
Randburg Musallah,,Randburg Musallah,Randburg Musallah,SA,-26.0895367,28.0041138,1,"'Moulana Zaheer Patel, Hafiz Ahmed Omar, Hafiz Mus'Ab, Hafiz Lawan'",
Musjid-E-Noorani,,Musjid-E-Noorani,Musjid-E-Noorani,SA,-27.7687672,29.9200894,1.25,"'Ml Qari Abdul Hamid, Hafith Hassan Seleman, Hafith Farhan Ismail'",
Auckland Park Masjid,,Auckland Park Masjid,Auckland Park Masjid,SA,-26.1842962,28.0036955,1,"'Qari Hussain Kazi, Hafiz Muhammed Latib, Mufti Bilaal Joosub'",
Masjid E Firdous,,Masjid E Firdous,Masjid E Firdous,SA,-23.9130301,29.430844,1,"'Ml Choonara, Hafiz Hanzalah'",
Pinecrest 14Th Ave Mayfair,,Pinecrest 14Th Ave Mayfair,Pinecrest 14Th Ave Mayfair,SA,-26.2098568,28.0127795,2,"'Mohammed, Mohammed, Mohammed'",
Musallah Mahmoodul Madaaris,,Musallah Mahmoodul Madaaris,Musallah Mahmoodul Madaaris,SA,-26.4226855,28.1067693,1,'',
Hamidia Masjid,Extension,Hamidia Masjid,Hamidia Masjid,SA,-26.203108,28.0270016,2.5,"'Qari Abubakr Bhikhu, Moulana Ebrahim Bham, Haafidh Uzair Randera, Haafidh Ibrahim Muhammad, Haafidh Muhammad Areff'",
Hamidia Masjid,,Hamidia Masjid,Hamidia Masjid,SA,-26.203108,28.0270016,1,"'Qari Yusuf Patel, Qari Muhammad Kavi'",
Beyers Palms,,Beyers Palms,Beyers Palms,SA,-26.1842724,28.2711528,2,"'Hfz Burhaan Laher, Hfz Faizaan Loonat, Hfz Rameez Khan'",
Anjuman Islam Musjid,,Anjuman Islam Musjid,Anjuman Islam Musjid,SA,-29.5708631,31.1181969,1,'',
Musalla Khadijah,,Musalla Khadijah,Musalla Khadijah,SA,-26.3207909,27.8624319,1,"'Muhammed Patel, Huzaifah Patel, Muhammed Varachia'",
Korsten Jamaat Khana,,Korsten Jamaat Khana,Korsten Jamaat Khana,SA,-33.9336446,25.5807106,1,"'Sheikh Mahmood Hassan Ali, Hfz Ahmed Uthmaan'",
Springs Muslim School,,Springs Muslim School,Springs Muslim School,SA,-26.2229205,28.4753964,2.5,"'Yusuf, Ahmed, Altaaf, Ebrahim, Salahuddin'",
Westcliff,,Westcliff,Westcliff,SA,-26.1737498,28.0183993,2.5,"'Qari Yaeesh Ali, Molana Abdul Rahman Bhamjee'",
Safinatun Najaah,,Safinatun Najaah,Safinatun Najaah,SA,-26.232617,28.3074333,1,'',
Fountains,,Fountains,Fountains,SA,-26.1985896,28.3070042,1.5,"'Hafez Zameer Ahmed, Hafez Zakariyah Ahmed, Hafez Qasim Daya, Hafez Talha Jamadar, Hafez Ismail Dawgie'",
Doringkruin,,Doringkruin,Doringkruin,SA,-26.8185816,26.6846229,2,"'Hafez Addurrahman Jeebhai, Hafez Hussain Jeebhai'",
Masjid-Us-Shaakireen,,Masjid-Us-Shaakireen,Masjid-Us-Shaakireen,SA,-24.6715714,30.3296422,1,'Hafez Hamzah Tayob',
Islamic Educational Center Jamaat Khana,,Islamic Educational Center Jamaat Khana,Islamic Educational Center Jamaat Khana,SA,-28.5733188,29.7783519,1.25,"'Hafiz Yusuf Patel, Hafiz Muhammad Asmal, Hafiz Yusuf Randeree'",
Musallah Fatah,,Musallah Fatah,Musallah Fatah,SA,-26.30679,27.83305,1,"'Qari Zafeer Patel, Qari Talha Batia'",
Masjid Ul Ansaar ,,Masjid Ul Ansaar ,Masjid Ul Ansaar ,SA,-26.1719917,27.7505316,1,"'Mufti Abu Bakr Muhammad, Qr Abdullah Motara, Qr Abdurrahman Eshak'",
Masjid Hamzah,,Masjid Hamzah,Masjid Hamzah,SA,-25.8078072,28.0964481,1.25,"'Ml Huzaifa Abbas, Ml Salmaan Jeena, Hfz Suhail Mohamed, Hfz Ahmad Chohan'",
Highbury Musallah,,Highbury Musallah,Highbury Musallah,SA,-26.1699233,28.0503656,2,"'Haafiz Ahmed Moola, Haafiz Imraan Chohan, Hafiz Irfaan Hansa'",
Musallah Uthman (Roofco),,Musallah Uthman (Roofco),Musallah Uthman (Roofco),SA,-29.8025581,30.9864789,2,"'Mufti Mahmood Sulaiman, Hafiz Muhammad Khan, Hafiz Moosa Patel, Hafiz Nabeel Badat, Ml Iqbal Hanslod'",
Musallah Al Abrar,,Musallah Al Abrar,Musallah Al Abrar,SA,-29.8404481,30.9983846,1.25,"'Hafidh Muhammad Munshi, Hafidh Abdullah Adam, Qari Muhammad Dindar, Qari Ismail Adamjee'",
Masjid Al Ansaar,,Masjid Al Ansaar,Masjid Al Ansaar,SA,-26.1868177,28.2820794,1,"'Ml Anees Munchi, Qari Azhar Laher, Haafidth Haroon Abilu, Haafidth Uthmaan Saley'",
Darul Uloom Madrassah Saadiqeen,,Darul Uloom Madrassah Saadiqeen,Darul Uloom Madrassah Saadiqeen,SA,-26.2465767,28.0184021,3,"'Usama Haffejee, Huzaifah Desai, Bilal Dhorat'",
Musjid Abu Bakr (R.A),,Musjid Abu Bakr (R.A),Musjid Abu Bakr (R.A),SA,-28.56675,29.78832,1.25,"'Qari Ashif Padalya, Sh. Sulayman Lyson, Hfz Sufyaan Sidat, Ml Shuaib Jhibhay'",
Rispark Masjid,,Rispark Masjid,Rispark Masjid,SA,-26.3226668,28.0304727,1,"'Hfz Nazeer Ahmed Mia, Hfz Hussain Mia, Hfz Talha Mia, Hfz Anees Kathrada'",
Maraisburg Masjid Neighbor,,Maraisburg Masjid Neighbor,Maraisburg Masjid Neighbor,SA,-26.1813368,27.9406173,2,"'Haafidh Muhammed Ameen Kara, Haafidh Abdul Azeez Degia'",
Musallah Khadija,,Musallah Khadija,Musallah Khadija,SA,-26.3208236,27.8624684,1,"'Hafiz Muhammed Varachia, Qari Mohammed Patel, Hafiz Huzaifa Patel'",
Masjid Ash Shakireen,,Masjid Ash Shakireen,Masjid Ash Shakireen,SA,-26.3133365,27.8335349,1,"'Hafidh Muhammad Asim Patel, Hafidh Hassan Bhana, Hafidh Adurrahmaan Saleh, Hafidh Muhammad Karodia, Hafidh Adurrahmaan, Hafidh Hamza Moosa'",
Kelvin Muslim Jamaat,,Kelvin Muslim Jamaat,Kelvin Muslim Jamaat,SA,-26.0780098,28.0994315,1.25,"'Hafez Ahmed Khatib, Hafez Moyin Moosa Laher, Hafez Jawaad, Hafez Mubashir Khan'",
Jami,,Jami,Jami,SA,-26.2245341,28.4699797,1,"'Ml Taahir, Ml Usuf, Hfz Haroon, Hfz Muhammed Umar'",
Actonville,,Actonville,Actonville,SA,-26.2160241,28.3094907,1.25,"'Abdullah Hussain, Muhammad Ridhwaan Ismail, Hamza Bhoja, Sahal Seedat'",
Ahmedia Lockhat Musjid,,Ahmedia Lockhat Musjid,Ahmedia Lockhat Musjid,SA,-29.8512596,30.9731572,1.25,"'Hafez Vawda, Hafez Patel, Hafez Paruk'",
Darul Uloom Numaniyyah,,Darul Uloom Numaniyyah,Darul Uloom Numaniyyah,SA,-29.9072316,30.9152718,1.25,"'Ml Huzayfah Musthan, Hafidh Junaid Saeed, Hafidh Abdullah Rajab'",
Beyers Park Musallah,,Beyers Park Musallah,Beyers Park Musallah,SA,-26.181082,28.267146,1,"'Qari Ml Mohammed Fayyaaz Laher, Ml Ridwaan Moosa, Ml Ahmed Lorgat, Hf Uthmaan Haffejee'",
Northcliff Jummah Masjid ,Madressah Classroom 1,Northcliff Jummah Masjid ,Northcliff Jummah Masjid ,SA,-26.1434478,27.9817367,2,"'Zubair Vaid, Abdur Rahman Vaid, Zubair Samrod, Shaheen Mohammed, Zaeem Nalla'",
Arcon Park Musallah,,Arcon Park Musallah,Arcon Park Musallah,SA,-26.6370532,27.9364108,1,"'Hafiz Zubayr Saley, Qari Suhayl Hoosen, Hafiz Muhammad Tickley, Hafiz Aarif Rasool'",
Pine Ridge Jummah Masjid,,Pine Ridge Jummah Masjid,Pine Ridge Jummah Masjid,SA,-25.8738474,29.2298525,1.25,"'Sheikh Ghulam, Ismail Nana, Sheikh Muhammad, Qari Taha Hussein Banda, Hafiz Muhammad Ismail'",
Zinniaville Jaame Masjid,,Zinniaville Jaame Masjid,Zinniaville Jaame Masjid,SA,-25.6477077,27.2405288,1,"'Ml Zaakir Bismilla, Qari Anas Motara, Qari Ismail Motara'",
Eldoraigne Musallah,,Eldoraigne Musallah,Eldoraigne Musallah,SA,-25.8497343,28.1414804,1,"'Abdul Rahmam, Ebrahim Shona'",
Langenhovenpark Musallah,,Langenhovenpark Musallah,Langenhovenpark Musallah,SA,-29.0981357,26.1626558,1,"'Muhammad Vadi, Tameen Kajee, Adam Shaikh, Naeem Makada'",
Winterton Musallah,,Winterton Musallah,Winterton Musallah,SA,-28.817953,29.5348716,1,'Zakariya',
Shanul Islam ,Hall,Shanul Islam ,Shanul Islam ,SA,-26.3169125,27.8492105,1,'Uzayr Bodiat',
Dalpark Musalla,,Dalpark Musalla,Dalpark Musalla,SA,-26.2399962,28.3132647,1.5,"'Hafidh Faizaan Kadir, Hafidh Ebrahim Jogie, Hafidh Thalha Kharva, Hafidh Asif Abdul, Hafidh Muhammed Ismail'",
Masjid Abubakar,,Masjid Abubakar,Masjid Abubakar,SA,-25.8612681,29.2375885,1,"'Moulana Usama Hassan, Hafiz Bilaal Osman, Hafiz Hassan Osman, Hafiz Salaah'",
Shanul Islam Masjid,,Shanul Islam Masjid,Shanul Islam Masjid,SA,-26.3170866,27.8489991,1,"'Mufti Sufyaan, Hafiz Uzair, Hafiz Zahir'",
Alabama Masjid,,Alabama Masjid,Alabama Masjid,SA,-26.8684907,26.5736567,1.25,"'Ml Hassan, Abdurrahmaan, Muhammad Cajee'",
MA Motala Lslamic Centre Musjid,,MA Motala Lslamic Centre Musjid,MA Motala Lslamic Centre Musjid,SA,-29.7711295,30.8779284,1.5,"'Junaid Katrada, Ashraful Siraj, Zakaria Ziyaya, Yusuf Muhamed'",
Habibia Soofie Masjid,,Habibia Soofie Masjid,Habibia Soofie Masjid,SA,-33.976016,18.523511,1.25,"'Moulana Luqmaan Kagee, Haafith Muhammed Naqeeb Kagee, Haafith Zahid Hamdulay, Haafith Muhammed Hasanain Kagee, Haafith Muaaz Ahmad Kagee, Haafith Abdur Rahmaan Soofie, Haafith Zainul Abideen Kagee, Haafith Fayyaaz Pangarker, Haafith Muhammad Yaseen Mukkadam, Haafith Hassan Shah'",
Masjid Dahwah(Alfurqaan Islamic Centre),,Masjid Dahwah(Alfurqaan Islamic Centre),Masjid Dahwah(Alfurqaan Islamic Centre),SA,-26.4180692,27.8737625,1.25,'Ahmed Mohammed Mustapha',
Jamiat Burial Office Lenasia,,Jamiat Burial Office Lenasia,Jamiat Burial Office Lenasia,SA,-26.3216558,27.842696,2,"'Muhammad Ganchi, Muhammad Goolam'",
Musallah Al-Burhaan,,Musallah Al-Burhaan,Musallah Al-Burhaan,SA,-29.827728,30.986602,1.5,"'Mufti Qari Ismaeel Bassa, Moulana Husain Kadwa, Hafidh Ubaidullah Pandor'",
Vereeniging Town Jammi Masjid,,Vereeniging Town Jammi Masjid,Vereeniging Town Jammi Masjid,SA,-26.6736613,27.9317601,1,"'Molana Dr Shareef Abubakar Sayed, Hafiz Muhammad Handroit'",
Masjidul Munowar,,Masjidul Munowar,Masjidul Munowar,SA,-34.0626957,18.473691,0.5,"'Raees Hoosen, Yaaseen Solomon, Abdurazikh Enus, Abdullah Jacobs, Ammaar Hoosen, Zakariyyah Abdulahi'",
Masjidus Sa'diyyah,,Masjidus Sa'diyyah,Masjidus Sa'diyyah,SA,-33.9665188,18.6349221,0.5,"'Sheikh Yusuf Motiki, Hafith Nabeel Arends'",
Springs Taqwa,,Springs Taqwa,Springs Taqwa,SA,-26.2235725,28.4741907,1,"'Abdullah Hajat, Ml Umar Adam, Ml Faheem Seedat, Hfz Fudhail Matwadia'",
Jamiya Tus Sabr Masjid,,Jamiya Tus Sabr Masjid,Jamiya Tus Sabr Masjid,SA,-33.9837412,18.5477492,1.25,"'Ml Yusuf Davids, H.Abdurahmaan Galant, Ml Abdurahmaan Davids, Ml Abubakr Abrahams'",
Emmarentia Primary,,Emmarentia Primary,Emmarentia Primary,SA,-26.1651431,28.0098257,3,"'Mufti Yusha Jassat, Mufti Haarith Vedachia, Hfz Ahmed Karolia, Hafez Muhammad Choonara'",
Darul Islam Masjid,,Darul Islam Masjid,Darul Islam Masjid,SA,-33.9751587,18.5471744,1.25,"'Ubaidullah Ajam, Thaafir Cassiem, Safwaan Khatib, Zubair Richards, Abdullah Taliep'",
Masjidul-Haq,,Masjidul-Haq,Masjidul-Haq,SA,-29.9085868,30.8826719,1,"'Isgaak Abrahams, Zaid Mohammed, Hamaas Muamar Fataar, Sh Naeem Abrahams'",
Masjid Mujaahideen,,Masjid Mujaahideen,Masjid Mujaahideen,SA,-33.9873325,18.5562241,1.25,"'Haafith Uzair Williams, Haafith M.Yaqoob Adams, Haafith Zakaria Cedras, Haafith Usama Adams'",
Kinross Jaamia Masjid,,Kinross Jaamia Masjid,Kinross Jaamia Masjid,SA,-26.4137399,29.082292,1,"'Hafiz Mohammed Mansoor, Hafiz Yusuf Evans'",
256 Market Street Musalla,,256 Market Street Musalla,256 Market Street Musalla,SA,-26.2048115,28.0428888,1.25,"'Hafiz Shaheen Sutria, Hafiz Ahmed Jogee, Hafiz Mohammed Saleem Pandor'",
Rynfield Musallah & Madrasah Tarteelul Quraan Benoni,,Rynfield Musallah & Madrasah Tarteelul Quraan Benoni,Rynfield Musallah & Madrasah Tarteelul Quraan Benoni,SA,-26.1454405,28.341465,1,"'Hafidh Khaleelurahman Tadia, Hafidh Tameem Karolia, Qari Muhammad Haffejee, Qari Imraan Tadia'",
Masjid Muawiyah,,Masjid Muawiyah,Masjid Muawiyah,SA,-28.7063913,24.7425319,1,"'Moulana Ikrima Obaray, Hf Salmaan Obaray'",
Bosmont Masjid,,Bosmont Masjid,Bosmont Masjid,SA,-26.1906454,27.956783,1,'',
Westhills Musallah,,Westhills Musallah,Westhills Musallah,SA,-25.8460626,28.103028,1.5,"'Sufyaan Sujee, Safwaan Sujee'",
Musjid Izh?rul Haq,,Musjid Izh?rul Haq,Musjid Izh?rul Haq,SA,-29.8054225,30.9668756,1.25,"'Ml Zaakir Makada, Hafez Jaabir Makada, Qari Shaakir Makada'",
Musallah An-Noor (Beatrice St.),,Musallah An-Noor (Beatrice St.),Musallah An-Noor (Beatrice St.),SA,-29.8517249,31.0156232,1.25,'Hafez Farhan Tekrawala',
Madrasah Akhtarul Uloom,,Madrasah Akhtarul Uloom,Madrasah Akhtarul Uloom,SA,-29.8366395,30.986412,1.75,"'Mawlana Maseehullah Ibn Mufti Muhammad Hashim Amod ???? ????, Hafiz Muhammed Agjee, Hafiz Ilyas Suliman, Hafiz Ahmed Omar'",
Residence - 12 Cunene Rd,,Residence - 12 Cunene Rd,Residence - 12 Cunene Rd,SA,-26.1544539,28.0089188,1,"'Hafidh Aqeel Hajee, Haafidh Ridwaan Cajee, Aaqib Khan'",
Masjid Muqeemus Salaah Bertrams,,Masjid Muqeemus Salaah Bertrams,Masjid Muqeemus Salaah Bertrams,SA,-26.1944248,28.0749162,1,"'Ml Ilyaas Bhayat, Ml Ismail Omar, Hfz Yahya Loonat, Shk Saleh Jummah'",
Al Huda Muslim School Musallah - Klerksdorp,,Al Huda Muslim School Musallah - Klerksdorp,Al Huda Muslim School Musallah - Klerksdorp,SA,-26.861838,26.5844638,1,"'Ml Ahmed Ravat, Hafidh Muhammed Haffejee, Hafidh Ahmed Haffejee'",
Juma Musjid,,Juma Musjid,Juma Musjid,SA,-29.8570121,31.0167908,1.25,"'Hafiz Ismail Eshaque, Hafiz Mohamed Ismail Eshaque, Hafiz Ahmed Ugaas, Hafiz Majid Adam'",
NMJ Hall Morningside,,NMJ Hall Morningside,NMJ Hall Morningside,SA,-29.82707,31.002781,2,"'Qari Zayd Manjoo, Ml Talha Seedat, Hafez Yusuf Kader, Hafez Usayd Amod'",
Buzme Adab Hall,,Buzme Adab Hall,Buzme Adab Hall,SA,-26.217456,28.3065976,2,"'Hafidh Muhammed Laily, Hafidh Anwar Bhoja, Maulana Ahmed Laily'",
Masjid Kauthur,,Masjid Kauthur,Masjid Kauthur,SA,-26.2450384,27.9982051,1,"'Talha, Shaheen'",
Abu Bakr Institute-Musallah (Umlazi V-Section Masjid),,Abu Bakr Institute-Musallah (Umlazi V-Section Masjid),Abu Bakr Institute-Musallah (Umlazi V-Section Masjid),SA,-29.964591,30.9295448,1.5,"'Hfz Mohammed Zakariyyah Joosab, Hfz Abdur Rahmaan Chohan, Hfz Abdur Rahmaan Joosab'",
Westville Jaame' Musjid,,Westville Jaame' Musjid,Westville Jaame' Musjid,SA,-29.8268317,30.9436196,1,"'Maulana Ahmed Omar, Haafidh Muhammad Salejee, Qaari Usaamah Jadwat, Hafez Huzaifah Jadwat'",
Sunni Jumuah Masjid,,Sunni Jumuah Masjid,Sunni Jumuah Masjid,SA,-34.06436,18.5270199,0.25,"'Abdul Qadir, Abdul Ghalik'",
Asvat Residence,,Asvat Residence,Asvat Residence,SA,-26.1529957,28.0597151,2,"'Hfz Ziyaad Ravat, Hfz Ziyaad Moola, Hfz Zubair Mamoojee'",
Azaadville Jaamea Masjid,,Azaadville Jaamea Masjid,Azaadville Jaamea Masjid,SA,-26.1689968,27.7591553,1,"'Mufti Muhammed Kholvadia, Mufti Saeedur-Rahmaan Azmi, Qari Muaawiyah Bulbulia'",
Masjid Siddique,,Masjid Siddique,Masjid Siddique,SA,-26.343328,27.8601267,1,"'Hf Zakariyya Pandor, Hf Talha Seedat, Qr Maseehullah Pandor, Ml Yaseen Cajee'",
Al Ansaar Conference Centre,,Al Ansaar Conference Centre,Al Ansaar Conference Centre,SA,-29.8317046,30.9956117,1.25,"'Haafidh Ihsaan Bhamjee, Haafidh Muhammad Irfaan Bhamjee, Haafidh Suhail Dhoda, Haafidh Mohomed Arshad Ismail Mansoor'",
Masjid Aysha,,Masjid Aysha,Masjid Aysha,SA,-26.2387911,27.9963134,1,"'Ml Zakariyya Afriqee, Ml Yusuf Adam, Hafez Zaeem Rajie, Mf Farhaan Karani'",
Masjid Quwwatul Islam,,Masjid Quwwatul Islam,Masjid Quwwatul Islam,SA,-26.3899356,28.1434878,1,"'Qari Shabbir Ahmed Panchbhaya, Ml Qasim Desai'",
Alberton Jumma Masjid,,Alberton Jumma Masjid,Alberton Jumma Masjid,SA,-26.2576912,28.1329528,1,"'Ml Ahmadullah Panchbhaya, Hafiz Muaaz Makda, Hafiz Hamza Khan'",
Musjidus Salaam Musgrave,,Musjidus Salaam Musgrave,Musjidus Salaam Musgrave,SA,-29.8448324,31.0000816,1,"'Qari Sufiyan Tailor, Qari Saeed Masoud'",
Madrasah Nusaybah,,Madrasah Nusaybah,Madrasah Nusaybah,SA,-26.29571,28.05364,2,"'Hafidh Yahya Choonara, Hafidh Muhammad Tickly, Hafidh Muhammad Waja, Hf Muhammad Irfaan Seedat, Hf Rashaad Moolla, Hf Yusuf Timol, Hafidh Yusuf Hassen, Hf Yusha Moolla'",
Madrasah Nusaybah,,Madrasah Nusaybah,Madrasah Nusaybah,SA,-26.29571,28.05364,3,"'Ml Abu Bakr Cajee, Hafidh Esa Moolla'",
Masjid Khalid Bin Walid,,Masjid Khalid Bin Walid,Masjid Khalid Bin Walid,SA,-26.2765809,28.0090865,1,"'Moulana Abdullah Badat, Hafiz Naeem Moolla'",
Masjid Abu Bakr Siddiq Ra,,Masjid Abu Bakr Siddiq Ra,Masjid Abu Bakr Siddiq Ra,SA,-26.1990277,28.3312647,1,"'Qari Muhammed Seedat, Qari Anwarulhaq Uthmaani, Moulana Zameer Shariff, Moulana Ridwaan Ameen'",
Madrasah Madinatul Ilm,,Madrasah Madinatul Ilm,Madrasah Madinatul Ilm,SA,-26.243928,28.0148539,1,"'Ml Saleh Malek, Hafidh Yasser Navlaki, Hafidh Muhammed Mia, Qari Sarfaraz Malek'",
The Reid Estate Musallah,,The Reid Estate Musallah,The Reid Estate Musallah,SA,-26.0863002,28.1352232,2,"'Muhammad Byat, Mas'Ood Byat, Imraan Ahmed, Imraan Akhalwaya, Muhammad Patel, Ml Muaaz, Asif Kalla'",
Witbank Jumu'ah Masjid,,Witbank Jumu'ah Masjid,Witbank Jumu'ah Masjid,SA,-25.8738474,29.2298525,1,"'Mufti Tahir, Mufti Siddiq'",
Rus Ter Vaal Masjid,,Rus Ter Vaal Masjid,Rus Ter Vaal Masjid,SA,-26.5722305,27.9439252,1,"'Hafidh Suhayl Dasoo, Hafidh Muhammed Kajee, Hafidh Salmaan Bulbulia, Hafidh Fuaad Karani, Hafidh Bilaal Karani, Hafidh Nabeel Saley'",
Nelspruit Jaame Masjid,,Nelspruit Jaame Masjid,Nelspruit Jaame Masjid,SA,-25.4694088,30.9938157,1,"'Ml Muhammad Musayib Choksi, Hafiz Muhammed Minty'",
Musallah Fatah,,Musallah Fatah,Musallah Fatah,SA,-26.30679,27.83305,1,"'Qari Talha Bhatia, Qari Zafeer Patel'",
Masjid Hamzah,,Masjid Hamzah,Masjid Hamzah,SA,-26.3331805,27.877165,1,'Ml Abrarul Haq',
Masjid Al Furqaan (Islamia Masjid),,Masjid Al Furqaan (Islamia Masjid),Masjid Al Furqaan (Islamia Masjid),SA,-33.9856548,18.4971574,1,"'Hafez Mubeen Parker, Hafez Farouk Stemmet, Hafez Zaeem Raja, Hafez Naweed Banderker, Hafez Muneeb Dawood, Hafez Sufyaan'",
Masjid Quba,,Masjid Quba,Masjid Quba,SA,-26.266327,27.995573,1,"'Mufti Muhammad Saeed Mohamed, Ml Muaawiyah Seedat, Qari Huzeifah Chothia, Hfz Salmaan Bata'",
Albersville Musjid,,Albersville Musjid,Albersville Musjid,SA,-30.7263605,30.4414342,1.25,"'Hafiz Yusuf Hussain, Hafiz Humza Mulla, Hafiz Burhaan Khamisa, Hafiz Yameen Desai, Hafiz Uwais Moosa'",
Musjid E Mahmood,,Musjid E Mahmood,Musjid E Mahmood,SA,-29.8182207,30.9723788,1,"'Qari Ishaaq Solwa, Hafez Ishaaq Bobat, Hafez Mohammed Alyasa Desai'",
Madrasah Miftaahul Jannah,,Madrasah Miftaahul Jannah,Madrasah Miftaahul Jannah,SA,-26.25978,28.0142,2,"'Ml Abdul Wahab, Hfz Abdurrahman Varachia, Hfz Mohammed Ali Khan, Hfz Yaseen Janoo'",
Masjid Ibaadur Rahman,,Masjid Ibaadur Rahman,Masjid Ibaadur Rahman,SA,-26.3412935,27.8756223,1,"'Ml Ishmael, Hfz Aadil, Hfz Uzair, Hfz Ahmed'",
Musjid Fatimah,,Musjid Fatimah,Musjid Fatimah,SA,-29.8168629,31.0035636,1.25,"'Hafez Suhaib Kadwa, Hafez Mahmood Simjee, Hafez Ebrahim Simjee, Ml Hanzalah Desai'",
Masjid Miftaahul Jannah,,Masjid Miftaahul Jannah,Masjid Miftaahul Jannah,SA,-26.25978,28.0142,1,"'Qari Uthman Peterson, Haafidth Mohammed Parak, Haafidth Umar Bismillah'",
Queensbridge Musjid,,Queensbridge Musjid,Queensbridge Musjid,SA,-29.8089771,31.0137145,1.25,"'Hafez Abdul Haq Khan, Hafez Azhar Khatib, Hafez Suhail Moola, Hafez Yusuf Desai, Hafez Ebrahim Desai'",
Nurul Islam Masjid,,Nurul Islam Masjid,Nurul Islam Masjid,SA,-26.3141879,27.840278,1,"'Ml Sulaimaan Ravat, Ml Yusuf Ravat, Hf Muhammad Ravat, Hf Naadir Rawoot, Hf Muhammad Pandor, Hf Mubeen Akhalwaya, Hf Nazeer Kara, Hf Uzair Kara, Hf M Hanief Patel, Hf Abdullah Ravat'",
Mountain Rise Masjid,,Mountain Rise Masjid,Mountain Rise Masjid,SA,-29.5880226,30.4053451,1.25,"'Moulana Suleiman Bhamjee, Moulana Mohammed Moola, Hafez Abdul Wahidyousafzai'",
Raudhatul Islam Masjid,,Raudhatul Islam Masjid,Raudhatul Islam Masjid,SA,-26.1601651,27.996668,1,"'Ml Mahmood Motara, Hf Umar Kharwa, Tbc, Tbc'",
Musallah Qamar,,Musallah Qamar,Musallah Qamar,SA,-29.7441524,31.0107849,1.25,"'Mufti Muhammad Yusuf Sulaiman, Hafiz Muhammad Yusuf Vaid'",
Musjid-E-Fathima ,Madrassah,Musjid-E-Fathima ,Musjid-E-Fathima ,SA,-29.930285,30.999069,1.25,"'Hfz Yaseen/M Vally, Hfz Shakeel, Hfz Anwaar, Hfz Sheikh Allie, Hfz Dr Muhammad Kathrada'",
Musjid-E-Fathima ,,Musjid-E-Fathima ,Musjid-E-Fathima ,SA,-29.930285,30.999069,1.25,"'Hfz Uzair Mansoor, Muhammed Salajee, Hfz Zaid Kathrada, Hfz Abdullah Mohammed, Hfz M.Yahya Cassim'",
Masjid Hamzah,,Masjid Hamzah,Masjid Hamzah,SA,-26.25045,28.00557,1,"'Qaria Ridwaan Bavaddin, Ml Yusuf Bham, Hafidh Abdullah Pandor'",
Musallah Abu Bakr Siddique,,Musallah Abu Bakr Siddique,Musallah Abu Bakr Siddique,SA,-29.824587,30.9933262,2,"'Ml Shuaib Moola, Bilal Motala, Sahl Moosa, Yusuf Munga'",
Delhi Palace Hall,,Delhi Palace Hall,Delhi Palace Hall,SA,-26.3254538,27.856885,1,"'Mohammed Raees Amanjee, Muhammad Tameem Sibda'",
Ixopo Jummah Masjid,,Ixopo Jummah Masjid,Ixopo Jummah Masjid,SA,-30.148751,30.0625341,1,"'Qari Uwais Ibn Ml Abdul Aziz Amod, Haafiz Abdul Kareem'",
Masjid Bilal,,Masjid Bilal,Masjid Bilal,SA,-29.8105506,30.9664391,1.5,'Molana Zaheer',
Umhlanga Masjid,,Umhlanga Masjid,Umhlanga Masjid,SA,-29.730681,31.0576965,1.25,"'Ml Mohammed Zakariyyah, Q?ri? Mohammad Motala, ??fi? Dawood Pandor, ??fi? Abdul Rahman Seedat, ??fi? Huzaifa Ebrahim'",
Kliptown Masjid,,Kliptown Masjid,Kliptown Masjid,SA,-26.201653,28.057835,1,"'Hafeez, Hafeez, Moulana, Qari, Qari'",
Madressatul Misbaah,,Madressatul Misbaah,Madressatul Misbaah,SA,-29.8566256,31.0006612,1.5,"'Hafez Ilyaas Varachia, Hafez Ahmed Motala, Hafez Ebrahim Karodia'",
Sunninghill Musallah,,Sunninghill Musallah,Sunninghill Musallah,SA,-26.037068,28.0787994,1,"'Hafidh Mohammad Ganchi, Hafidh Ahmad Osman, Hafidh Shihaab Buckas'",
Madressa Hifz Ul Quraan ,,Madressa Hifz Ul Quraan ,Madressa Hifz Ul Quraan ,SA,-29.8296833,31.0002347,1.5,"'Hafez Abdullah Joosab, Hafez Yusuf Makada, Hafez Hoosen, Hafez Zakariya Kajee'",
Madrasah Taleemuddeen,,Madrasah Taleemuddeen,Madrasah Taleemuddeen,SA,-29.8586804,31.0218404,3,"'Ml Zakariyyah Motala, Ml Khalil Salejee'",
The Sails Musallah,,The Sails Musallah,The Sails Musallah,SA,-29.871621,31.0495811,1.5,"'Hafez Luqmaan Asmall, Hafez Suhail Kader, Hafez Ismail Simjee, Hafez Muhammed Allibhai, Hafez Siraj Jeewa'",
Masjid Haw'wa,,Masjid Haw'wa,Masjid Haw'wa,SA,-25.990823,28.1152853,1,'',
Blythedale Beach Musallah,,Blythedale Beach Musallah,Blythedale Beach Musallah,SA,-29.3695833,31.3485565,2,"'Uzair Gori, Shiraz Tootla, Ismail Seedat, Husain Mitha, Uwais Tootla, Muawiya Kajee, Imran Tayob, Yusuf Joosub'",
Madrasah Mahmudia Silverglen,,Madrasah Mahmudia Silverglen,Madrasah Mahmudia Silverglen,SA,-29.9336243,30.9017853,1.25,"'Moulana Khalifa, Hafiz Sufyaan, Hafiz Anas'",
Evander Musjid,,Evander Musjid,Evander Musjid,SA,-26.4683304,29.1076297,0.5,'',
Masjid Siratul Jannah,,Masjid Siratul Jannah,Masjid Siratul Jannah,SA,-26.2443754,28.0053513,1,"'Hfz Zaeem Bismilla, Qr Muhammad Khan, Mufti Ahtaram Ilahi'",
Hectorspruit Musjid/Musjid Abu Bakr,,Hectorspruit Musjid/Musjid Abu Bakr,Hectorspruit Musjid/Musjid Abu Bakr,SA,-25.4397991,31.6810647,1.25,"'Qari Umar Rashid, Hafiz Imraan'",
Musallah On Victoria,,Musallah On Victoria,Musallah On Victoria,SA,-29.5938958,30.3758715,1.25,'Qari Jabir Patel',
Masjid Sulaimaniyah,,Masjid Sulaimaniyah,Masjid Sulaimaniyah,SA,-26.3294132,27.8490122,1,'',
East Rand Musallah,,East Rand Musallah,East Rand Musallah,SA,-26.1834352,28.2397852,1.5,"'Mufti Usaamah Degia, Hafiz Muhammed Suhail Cassim, Hafiz Salmaan Vawda, Hafiz Mohammed Idrees Minty'",
Riverside Soofie Musjid,,Riverside Soofie Musjid,Riverside Soofie Musjid,SA,-29.8061545,31.0350797,1.25,"'Hafiz Luqman Kazee, Hafez Haroun Khatib, Hafez Aadam Fortune, Hafez Mohammed Haffejee, Hafez Mohsien Bashir'",
Nurul Latief Masjid,,Nurul Latief Masjid,Nurul Latief Masjid,SA,-34.0494943,18.749191,1.25,"'Sh Qari Muhammad Nur, Ml Qari Abu Bakr Karriem, Ml Qari Abdurahmaan Basha, 2 Students'",
Isipingo Rail Masjid,,Isipingo Rail Masjid,Isipingo Rail Masjid,SA,-29.9719124,30.9349557,1,"'Ml Asif Ally, Ml Zainul Aabideen Khan, Hafez Zakariya Asmall, Hafez Yahya Asmall'",
Seochoareng Musjid,,Seochoareng Musjid,Seochoareng Musjid,SA,-28.7097166,24.727577,1.25,"'Imam Mustafa Sebogodi, Imam Tayyib Gido'",
Masjid-Ul-Huda,,Masjid-Ul-Huda,Masjid-Ul-Huda,SA,-26.6783754,27.8832797,1.25,"'Moulana Muhammed Ameen Sujee, Hafidh Zakaria Pandor, Hafidh Muhammed Moola, Mahmood H Sujee'",
Ixopo Jummah Masjid,,Ixopo Jummah Masjid,Ixopo Jummah Masjid,SA,-30.148751,30.0625341,1,"'Uwais Amod, Hafiz Abdul Kareem'",
Jamia Razvia Masjid,,Jamia Razvia Masjid,Jamia Razvia Masjid,SA,-26.3283668,27.8581051,1.25,"'Qari Zaheedi, Qari Akoo, Hafez Abduraoof, Hafez Ismail'",
Horison Musallah,,Horison Musallah,Horison Musallah,SA,-26.1505137,27.8798935,1,"'Hanzilah Kaka, Mufti Tajammul, Mohamed Salloo'",
Masjidul Mansur Mount Veiw,,Masjidul Mansur Mount Veiw,Masjidul Mansur Mount Veiw,SA,-33.9883291,18.5237684,0.5,"'Shaigh Maroof, Shaigh Luqmaan, Shaigh Anwar'",
Austerville Musjid,,Austerville Musjid,Austerville Musjid,SA,-29.9433257,30.9824221,1.25,"'Qari Ridwaan Salot, Hafiz Zakariyyah Salot, Hafiz Shabeer Ebrahim, Hafiz Yusuf Saley'",
Musalla Usmaan Alghani,,Musalla Usmaan Alghani,Musalla Usmaan Alghani,SA,-29.8553874,31.038056,1.25,"'Abdul Hakeem, Hafiz Saheb'",
Weltevredenpark Musallah,,Weltevredenpark Musallah,Weltevredenpark Musallah,SA,-26.1188967,27.9261024,1,"'Moulana Imraan Hadjee, Unknown, Unknown'",
Beacon Bay Masjid,,Beacon Bay Masjid,Beacon Bay Masjid,SA,-32.9618763,27.937757,1.25,"'Ml Mahmood Kara, Ml Hasan Moosa'",
Musjid-Us-Saliheen,,Musjid-Us-Saliheen,Musjid-Us-Saliheen,SA,-29.8327152,30.9737175,1,"'Hafez Umar Vawda, Moulana A Khan'",
Masjid Khalid Bin Waleed,,Masjid Khalid Bin Waleed,Masjid Khalid Bin Waleed,SA,-26.3342774,27.8334115,1,"'Moulana Tariq Terezo, Hafez Muhammad Irfan Valli, Hafez Muhammad Moola, Hafez Muhammad Amanjee'",
Maraisburg Jumuah Musjid,,Maraisburg Jumuah Musjid,Maraisburg Jumuah Musjid,SA,-26.1812578,27.9406058,1,"'Qari Shaheed Amien, Ml Tohier Kara, Qari Zaid Kara, Ml Anees Kara'",
Masjid Inchanga Islamic Centre,,Masjid Inchanga Islamic Centre,Masjid Inchanga Islamic Centre,SA,-29.7319926,30.6576932,1.25,"'Ml Khamis, Hafees Abdul Moiz'",
Siraajul Islaam,,Siraajul Islaam,Siraajul Islaam,SA,-26.713424,27.096132,1,"'Hfz Abdul Carrim Omar, Hafez Idrees Wadee, Ml Mahomed Minty'",
Madina Musallah Vangate Mall,,Madina Musallah Vangate Mall,Madina Musallah Vangate Mall,SA,-33.9773863,18.5380744,1.25,"'Hafiz Abdul Qadir Khatib, Hafiz Mahmood Khatib, Hafez Muthakir Christians, Moulana Ebrahim Darries, Hafez Uwais Ismail'",
Ansaarul Islam,,Ansaarul Islam,Ansaarul Islam,SA,-26.7200606,27.0308591,1,"'Hfz Mahomed Patel, Hfz Mahomed Minty, Qari Ally'",
Darul Uloom Newcastle,,Darul Uloom Newcastle,Darul Uloom Newcastle,SA,-27.7654838,29.9062863,1,"'Ml Akoo, Qari Irfan Randera, Mufti Al Ameen Akoo'",
Musjidur Rahman,,Musjidur Rahman,Musjidur Rahman,SA,-29.7878794,31.0342765,1,"'Qari Mufti Muhammed Hamza Farooqui, Haafidh Muhammad Makada'",
Masjid Nusaybah,,Masjid Nusaybah,Masjid Nusaybah,SA,-26.29571,28.05364,1,"'Mf Husain Ahmed Koya, Ml Abdullah Badat, Ml Aaqib'",
Masjidul Furqaan,,Masjidul Furqaan,Masjidul Furqaan,SA,-25.4694529,30.9764302,1.25,"'Imam Abdulkareem Goni, Sh. Abdurazaq Belel, Sh. Basheer, Sh. Mursal'",
Image Lifestyle,,Image Lifestyle,Image Lifestyle,SA,-26.2002653,28.0207043,3,'To Be Confirmed',
Shan Ul Islam Masjid,,Shan Ul Islam Masjid,Shan Ul Islam Masjid,SA,-26.1841665,28.0037024,1,"'Mufti Sufiyan, Hafidh Uzer Ahmad, Hafidh Zaheer Daya'",
Auckland Park Masjid,,Auckland Park Masjid,Auckland Park Masjid,SA,-26.1841665,28.0037024,1,"'Mufti Bilal Jusub, Qarie Husain Kazie, To Be Confirmed'",
Gordon's Bay Masjid,,Gordon's Bay Masjid,Gordon's Bay Masjid,SA,-34.1548655,18.870476,1,"'Moulana Yacoob Yusuf, Moulana Umar Thomas, Hafez Usaamah Akhalwaya, Hafez Mohamed Meyer, Hafez Nasr Jacobs'",
Masjid E Bilal,,Masjid E Bilal,Masjid E Bilal,SA,-28.9400559,27.0605867,1.25,"'Mufti Irfan Shaikh, Unknown'",
Sayyidina Ubay Bin Ka'b,,Sayyidina Ubay Bin Ka'b,Sayyidina Ubay Bin Ka'b,SA,-26.1157209,28.0099743,1,'',
Masjid Al-Khair,,Masjid Al-Khair,Masjid Al-Khair,SA,-34.0273866,18.5919912,1,"'Haafith Naasih Kleinsmidt, Haafith Mish-Al Steenberg, Haafith Abdun-Nur Jacobs, Haafith Abubakr Cassiem'",
Masjid Abubakr Siddique Erasmia,,Masjid Abubakr Siddique Erasmia,Masjid Abubakr Siddique Erasmia,SA,-25.8084021,28.0901487,1.25,"'Hafeez Yasin Suleiman, Hafeez Suhail Seedat, Hafeez Riyaadh Osman, Hafeez Mukhtar Ahmad'",
Beaufort West Masjid,,Beaufort West Masjid,Beaufort West Masjid,SA,-32.3585055,22.5771088,1.25,"'Ml Shareef Nowa, Hafiz Abu Bakr, Hafiz Ali'",
Baitul Hafiza,,Baitul Hafiza,Baitul Hafiza,SA,-26.3713839,28.3754131,1.5,"'Moulana Lambat, Darul Uloom Heidelburg Appointment'",
Estcourt Town Musjid,,Estcourt Town Musjid,Estcourt Town Musjid,SA,-29.0066608,29.8752203,1,'',
Musjid Rabia,,Musjid Rabia,Musjid Rabia,SA,-29.0134225,29.8695541,1,'',
Masjid Ebrahim,,Masjid Ebrahim,Masjid Ebrahim,SA,-26.2399259,28.0202453,1,"'Hafiz Ali Ismail Jogie, Qari Shurahbeel Peck, Ml Suhail Patel'",
Masjid Abu Bakr Siddique Radiyallahu'Anhu,,Masjid Abu Bakr Siddique Radiyallahu'Anhu,Masjid Abu Bakr Siddique Radiyallahu'Anhu,SA,-25.8612681,29.2375885,1,'Ml Usaamah Hassen',
Musjid Sunni,,Musjid Sunni,Musjid Sunni,SA,-33.978603,18.495365,1,'',
Piers Road Musjid,,Piers Road Musjid,Piers Road Musjid,SA,-34.0106761,18.4691492,2,'',
Roodepan Musjid,,Roodepan Musjid,Roodepan Musjid,SA,-28.66063,24.71145,1,"'Ml Abdul Majeed, Ml Hanief'",
Masjid Mansoor,,Masjid Mansoor,Masjid Mansoor,SA,-33.9229658,25.527352,1.25,"'Qari Yunus Badsha, Hafith Hamzah Variawa, Hafith Saifullah Badsha'",
Seaview Musallah,,Seaview Musallah,Seaview Musallah,SA,-29.901366,30.9621656,1.25,"'Moulana Junaid Yusuf Kadwa Saab, Moulana Zakariya Yusuf Kadwa Saab, Moulana Usaamah Yusuf Kadwa Saab'",
Moghul Park Masjid,,Moghul Park Masjid,Moghul Park Masjid,SA,-28.7220037,24.7716632,1.25,"'Ml Faadhil, Ml Ebrahim, Mahmoud, Sufiyaan'",
Jaamia Masjid Lichtenburg,,Jaamia Masjid Lichtenburg,Jaamia Masjid Lichtenburg,SA,-26.1515287,26.1615525,1,"'Hf Moaaz, Ml Ebrahim, M Jogie'",
Masjid Us Saabereen,,Masjid Us Saabereen,Masjid Us Saabereen,SA,-34.1746167,22.1175702,1,"'Moulana Fuazail, Moulana Nazeer'",
NMJ Durban,,NMJ Durban,NMJ Durban,SA,-29.8271349,31.0026247,1,'',
Musjid Rahman,,Musjid Rahman,Musjid Rahman,SA,-30.0993706,30.8554796,1.5,"'Hafiz 1, Hafiz 2, Hafiz 3'",
Masjid E Hussain,,Masjid E Hussain,Masjid E Hussain,SA,-26.2035799,27.9954378,1.25,"'Hafez Rajab, Hafez Muhammad Tanwir, Mufti Mohammed Raees, Hafez Noor'",
Residence - Mufti Iqbal Bux,,Residence - Mufti Iqbal Bux,Residence - Mufti Iqbal Bux,SA,-30.7321124,30.443663,1.25,'Mufti Iqbal Bux',
Lebowa Jamatkhana,,Lebowa Jamatkhana,Lebowa Jamatkhana,SA,-24.6813666,30.3349024,1,"'Hafiz Yusuf, Qari Ubaid, Hafiz Amir'",
Masjid Imdaadiyya,,Masjid Imdaadiyya,Masjid Imdaadiyya,SA,-26.1815355,28.0959376,1,"'Moulana Junaid Salloo, Not Decided Yet'",
Masjid Muhammad Al-Saadiq-Al-Amien,,Masjid Muhammad Al-Saadiq-Al-Amien,Masjid Muhammad Al-Saadiq-Al-Amien,SA,-28.7299995,24.7663853,1.5,"'Ml Zakariyyah Jeena, Ml Fudhail'",
Musina Town Masjid,,Musina Town Masjid,Musina Town Masjid,SA,-22.3457134,30.0432073,1.25,"'Moulana Hussein, Moulana Arif, Hafiz Asmal'",
Masjid Nurul Islam,,Masjid Nurul Islam,Masjid Nurul Islam,SA,-33.9219122,18.4152953,0.75,'',
Masjidul Misbaah,,Masjidul Misbaah,Masjidul Misbaah,SA,-29.8566256,31.0006612,1,"'Mufti Ahmad Patel, Hfz Yahya Backus, Hfz Hamza Mansoor'",
Musjid Farouk E Azam,,Musjid Farouk E Azam,Musjid Farouk E Azam,SA,-29.672014,31.0373075,1.25,"'Ml Zaid, Hafez Ahmad'",
Musjid-E-Tazkiyyah,,Musjid-E-Tazkiyyah,Musjid-E-Tazkiyyah,SA,-29.956565,30.9823666,1.25,"'Haafidh Ismail Vawda, Haafidh Muhammed Essack, Haafidh Asrarul Haq Patel, Haafidh Hassan Bassa, Haafidh Uzair Patel'",
Musallah Al Abrar,,Musallah Al Abrar,Musallah Al Abrar,SA,-29.8405221,30.997647,1,"'Qari Ismail Adamjee, Qari Muhammad Dindar, Hafiz Abdullah Adam'",
Masjidur Rahmah,,Masjidur Rahmah,Masjidur Rahmah,SA,-26.148754,28.0084533,1,"'Ml Burhaan Mia, Ml Nadeem Patel, Hf Tameem Gause'",
Masjidur Rahmah,Female Hifz Class,Masjidur Rahmah,Masjidur Rahmah,SA,-26.149026,28.008823,1.5,"'ML M. A. Ravat, HF Anas Mia, HF Tameem Patel'",
14 Malopo Road,,14 Malopo Road,14 Malopo Road,SA,-26.1567937,28.0087391,1.5,"'ML Iqbal Hathurani, ML Sajjad Hathurani, HF Ammaar Hathurani, HF Talha Patel'",
18 Linden Road,,18 Linden Road,18 Linden Road,SA,-26.1480373,28.0073325,1,"'HF Hammaad Mia, HF Inayat Ismail, Burhaan Patel'",
15 Caledon Road,,15 Caledon Road,15 Caledon Road,SA,-26.1499279,28.0001146,1,"'HF Dr Muhammad Nanabhai, HF Furqaan Khan'",
Baitur Rahmah Albertville Masjid,,Baitur Rahmah Albertville Masjid,Baitur Rahmah Albertville Masjid,SA,-26.165684,27.9773333,1,"'HF Sa?ad Hathurani, HF Ismail Wadee'",
274 Barry Hertzog Avenue,,274 Barry Hertzog Avenue,274 Barry Hertzog Avenue,SA,-26.1492569,28.0096395,1.5,"'HF Mohammad Ebrahim, HF Abdurrahman Mia, HF Muhammad Rawat, HF Rashaad Sujee'",
106 Komati Road,,106 Komati Road,106 Komati Road,SA,-26.1640421,28.0118447,1.5,"'HF Shuaib Jooman, HF Muhammad Docrat, HF Zaheer Doodhat, HF Rayhaan Essop, HF Ebrahim Dadabhai, Zaid Muhammad, Nuaym Seedat'",
7 Pafuri Road,,7 Pafuri Road,7 Pafuri Road,SA,-26.1481169,27.9943548,1.5,"'HF Haroon Waja, HF Basheer Essa, HF Abdullah Moola, HF Naweed Patel, HF Zaheer Mayet, HF Bilal Takolia, HF Zainul Abideen, HF Zishan Bham'",
141 5th Avenue (Linden),,141 5th Avenue (Linden),141 5th Avenue (Linden),SA,-26.1437855,27.9881173,1.5,"'HF M. Zakariyya Bholat, HF Mohammed Jassat, HF Riyaz Makda, HF Zubair Saley, HF Zaid Desai'",
13 Greenhill Road,,13 Greenhill Road,13 Greenhill Road,SA,-26.162741,28.0081845,1.5,"'HF Muhammad Hassen, HF Muhammad Parak, HF Zaakir Osman'",
2 Ingalele Road,,2 Ingalele Road,2 Ingalele Road,SA,-26.1495932,28.0070702,1.5,"'ML Yusuf Panchbhai, HF Adnaan'",
9 Crocodile Road,,9 Crocodile Road,9 Crocodile Road,SA,-26.1450638,28.0073471,2,"'HF Muaaz Ganchi, HF Suhail Ganchi, HF Muhammad Essay, Abdurrahman Hans'",
Saleh's Bakery,,Saleh's Bakery,Saleh's Bakery,SA,-26.1460164,27.9852981,1.5,"'HF Zubair Wadee, HF Abdurrahman Wadee, HF Abubakr Haffejee, HF Razeen Sader'",
27 Congo Road,,27 Congo Road,27 Congo Road,SA,-26.1678492,28.0091464,1.5,"'Qari Abdul Aziz, Hf Muhammad Laher. Hf Zaahid Laher, Irshaad Garda'",
Emma Mews,,Emma Mews,Emma Mews,SA,-26.1627897,28.0122274,1.5,"'Hf M Taher Khan, Hf Ridwan Deedat, Hf Ahmed Muhammad, Hf Muhammad Bhayyat, Hf Muhammad Haffejee, Hf Uzair Lorgat, Hf Suhail Saley'",
14 Primrose Drive Victory Park,,14 Primrose Drive Victory Park,14 Primrose Drive Victory Park,SA,-26.1324589,28.0129036,1.5,"'Hf Muhammad Laher, Hf Khaled Moolla, Hf Hamza Moolla, Hf Muaadh Dawood'",
Cambridge Masjid,,Cambridge Masjid,Cambridge Masjid,SA,-26.18909,28.0449,1,"'HF Akeel Patel, HF Waleed Patel, HF Amaan Patel'",
40 Komatie Road,,40 Komatie Road,40 Komatie Road,SA,-26.1550357,28.0097043,1.5,"'Hf Yusuf Kharva, Hf Ziyaad Patel, Hf Uzayr Kazie, Hf Mohammed Peer, Hf Muhammad Kaka'",
Masjid Al Falaah,,Masjid Al Falaah,Masjid Al Falaah,SA,-26.1906701,28.0440074,1,"'HF Riyaad Nanabhai, HF Imraan Nanabhai, HF Ismail Nanabhai'",
Wits Musallah,,Wits Musallah,Wits Musallah,SA,-26.1883663,28.0291218,1,"'Hf Muhammad Cassim, Hf Abdurrahman Ganchi'",
Ubay bin Ka'b Musallah Langlaagte,,Ubay bin Ka'b Musallah Langlaagte,Ubay bin Ka'b Musallah Langlaagte,SA,-26.2019118,27.9926298,1,"'Hf Luqmaan Mia, Hf Muhammad Kermada'",
37 Dale Brook Crescent Victory Park,,37 Dale Brook Crescent Victory Park,37 Dale Brook Crescent Victory Park,SA,-26.1385705,28.007762,1,"'Hf Yusuf Bismillah, Hf Aadil Khan, Hf Waseem Chotia'",
Weltevreden Park Masjid,,Weltevreden Park Masjid,Weltevreden Park Masjid,SA,-26.1188967,27.9261024,1,"'Ml Naeem Haaji, Ml Naazim Patel, Hf Faizan Sheikh'",
Masjid Farooq California Street Hursthill,,Masjid Farooq California Street Hursthill,Masjid Farooq California Street Hursthill,SA,-26.18855,27.984163,1,'Hf Uwais Parak',
2 Doris Crescent Ext 12 Northcliff,,2 Doris Crescent Ext 12 Northcliff,2 Doris Crescent Ext 12 Northcliff,SA,-26.1578128,27.9634473,1.25,'Ml Zainul Aabideen',
Al Qadr Musallah - Classroom,,Al Qadr Musallah - Classroom,Al Qadr Musallah - Classroom,SA,-26.1319882,27.9650535,2,"'Hf Uzair Wadee, Hf Yusuf Ebrahim'",
Fairlands Musallah,,Fairlands Musallah,Fairlands Musallah,SA,-26.1419419,27.9387957,1,"'Hf Imraan Vadia, Hf Toufeeq Petersen'",
Fountainbleau Musallah 10 Silverpine Avenue,,Fountainbleau Musallah 10 Silverpine Avenue,Fountainbleau Musallah 10 Silverpine Avenue,SA,-26.1081006,27.9875304,1,"'HF Muhammad Habib, HF Naushad Patel, Mukhtar Osman'",
8 Vardon Road,,8 Vardon Road,8 Vardon Road,SA,-26.153318,28.0144231,1.5,"'HF Muhammad Chavoos, HF Yusuf Lockhat, HF Talha Chavoos'",
107 4th Street Parkmore,,107 4th Street Parkmore,107 4th Street Parkmore,SA,-26.1015677,28.0405593,1,"'HF Bilal Kareem, Muhammad Makda'",
Clearwater Musallah,,Clearwater Musallah,Clearwater Musallah,SA,-26.1275586,27.9046597,1,"'HF Akram Noor, HF Mu?tasim Abdurrahman'",
Randpark Ridge Musallah,,Randpark Ridge Musallah,Randpark Ridge Musallah,SA,-26.1096554,27.9530964,1,"'HF Luqman Vaid, HF Ahmed Mohamed Karolia, HF Muzammil Sader'",
Darul Uloom Madrasatus Saadiqeen,Main Musallah,Darul Uloom Madrasatus Saadiqeen,Darul Uloom Madrasatus Saadiqeen,SA,-26.2465767,28.0184021,1,"'Hafez Safwaan Bala, Hafez Huzaifa Hazaree, Hafez Ali Bajwa, Hafez Usama Beejambee'",
Darul Uloom Madrasatus Saadiqeen ,Hifz Hall,Darul Uloom Madrasatus Saadiqeen ,Darul Uloom Madrasatus Saadiqeen ,SA,-26.2465767,28.0184021,3,"'Hafez Huzaifa Desai, Hafez Usama Haffejee, Hafez Bilal Dhorat'",
Darul Uloom Madrasatus Saadiqeen ,11th to 16th Night,Darul Uloom Madrasatus Saadiqeen ,Darul Uloom Madrasatus Saadiqeen ,SA,-26.2465767,28.0184021,5,"'Hafez Ubaydullah Patel, Hafez Ebrahim Makada'",
Darul Uloom Madrasatus Saadiqaat,JK,Darul Uloom Madrasatus Saadiqaat,Darul Uloom Madrasatus Saadiqaat,SA,-26.2557024,28.0109398,3,"'Ml Arshad Khan, Hafez Saad Patel, Hafez Uthman Chothia, Hafez Uzair Muhammed'",
Darul Uloom Madrasatus Saadiqaat ,Upstairs,Darul Uloom Madrasatus Saadiqaat ,Darul Uloom Madrasatus Saadiqaat ,SA,-26.2557024,28.0109398,2,"'Ml Yusuf Essopjee, Hafez M Yusuf Patel, Hafez Abdurrahmaan Chothia, Hafez Omar Takolia, Hafez Muaaz Dosani'",
Darul Uloom Madrasatus Saadiqaat,6 Nights,Darul Uloom Madrasatus Saadiqaat,Darul Uloom Madrasatus Saadiqaat,SA,-26.2557024,28.0109398,5,"'Hafez Ubaydullah Patel, Hafez Ebrahim Makada'",
Musjid Al Hilal,,Musjid Al Hilal,Musjid Al Hilal,SA,-29.829202,30.9988475,1,"'Hafidh Yusuf Osman, Qari Abdullah Chohan, Hafidh Ziad Nassar'",
Dar al-Turath al Islami Belgravia,,Dar al-Turath al Islami Belgravia,Dar al-Turath al Islami Belgravia,SA,-33.9783699,18.5156731,2,"'Qari Afzal Hatia, Qari Luqmaan Ben, Shaykh Muhammad Isaacs, Qari Fareez Hendricks'",
Dar al-Turath al Islami Athlone,,Dar al-Turath al Islami Athlone,Dar al-Turath al Islami Athlone,SA,-33.9621871,18.5049296,0.5,"'Hfz Ismail Sungay, Hfz Luqmaan Esmail, Hfz Nassir Ramadhan, Hfz Abdurrahman Esmail'",
Dar al-Turath al Islami Plumstead,,Dar al-Turath al Islami Plumstead,Dar al-Turath al Islami Plumstead,SA,-34.0206243,18.4674497,1,"'Hfz Hamza Carr, Hfz Mujaahied Carelse'",
Masjid Tariq Bin Ziyad,,Masjid Tariq Bin Ziyad,Masjid Tariq Bin Ziyad,SA,-26.0967915,28.1250627,1,"'Ml Abu Sufiyaan Desai, Qari Shukri Vrydie, Hfz Tahir Peters'",
Qurtuba Lifta Jamaat Khana,,Qurtuba Lifta Jamaat Khana,Qurtuba Lifta Jamaat Khana,SA,-26.0903626,28.125568,1,"'Hfz Muhammed Sadick Jeebhai, Hfz Abdur Rahman Chohan, Hfz Umar Mansoor, Qari Abdul Khaliq Laily'",
Qurtuba Souk Classroom,,Qurtuba Souk Classroom,Qurtuba Souk Classroom,SA,-26.0882566,28.1216984,1.5,"'Hfz Mikaeel Badat, Hfz Zaheer Khamissa, Hfz Ismaeel Bux, Hfz Mahmoud Elghobashy, Hfz Mohammed Laher.'",
Qurtuba Al Hamra Hall,,Qurtuba Al Hamra Hall,Qurtuba Al Hamra Hall,SA,-26.0844707,28.1222558,3,"'Mufti Umair Patel, Hfz Muhammad Zaakir Patel, Hfz Shuaib Hassen, Hfz Muhammad Lambat'",
Qurtuba Quraan Institute,,Qurtuba Quraan Institute,Qurtuba Quraan Institute,SA,-26.0982811,28.1240488,2,"'Hfz Nabeel Ibrahim, Hfz Safwaan Nagdee, Hfz Zaid Bhana, Hfz Muhammed Waaris, Hfz Muhammed Vadalia, Hfz Muhammed Moosa, Hfz Abdullah Ajmudien'",
Qurtuba Islamic Institute,,Qurtuba Islamic Institute,Qurtuba Islamic Institute,SA,-26.0882566,28.1216984,2.5,'Hfz Muhammad Hassan Murchie',
Qurtuba Hotel & Spaÿ,,Qurtuba Hotel & Spaÿ,Qurtuba Hotel & Spaÿ,SA,-26.0875361,28.1238954,2,"'Ml Haamid Mulla, Hfz Eyaaz Matwadia, Hfz Abdullah Nana, Hfz Muhammad Ismail, Ml Muhammed Aslam Rajah'",
Masjid Khalid Ibn Al Walid,,Masjid Khalid Ibn Al Walid,Masjid Khalid Ibn Al Walid,SA,-26.0943902,28.1264873,1,"'Qr Muhammed Abed, Ml Ahmed Paruk, Mufti Asadullah Moolla'",
The Ferns Club House,,The Ferns Club House,The Ferns Club House,SA,-26.0946866,28.126342,2.5,"'Hfz Badrul aalam Kathrada, Hfz Muhammed Cassim, Hfz Muhammad Uzair Hira, Hfz Muhammed Suliman, Hfz Mohammed Ayob, Hfz Muhammad Ismail Sayanvala'",
The Reid Musallah,,The Reid Musallah,The Reid Musallah,SA,-26.0885466,28.1353439,2,"'Hfz Muhammad Byat, Hfz Muhammad Patel, Hfz Mas'ood Byat, Hfz Dr Imraan Ahmed, Hfz Yahya Vahed, Hfz Imraan Akhalwaya, Hfz Asif Kalla'",
Autohub,,Autohub,Autohub,SA,-26.1376358,28.1507769,1.5,"'Ml Muhammad Irfaan Sema, Hfz Juma Phiri, Hfz Aamir Dawood, Hfz Abdullah Dieng'",
Thornvalley Estate,,Thornvalley Estate,Thornvalley Estate,SA,-26.1187252,28.1521942,1.5,"'Hfz Mohammed Suliman, Hfz Muhammad Ridah Sooliman, Hfz Mahmood Tulve, Hfz Muhammad Kathrada'",
Greenstone Musallah,,Greenstone Musallah,Greenstone Musallah,SA,-26.1250539,28.155714,1,"'Hfz Muhammad Amajee, Ml Zubair Paruk'",
Edenvale Upstairs Musallah,,Edenvale Upstairs Musallah,Edenvale Upstairs Musallah,SA,-26.147117,28.155033,1,"'Hfz Muhammad Ilyas Bey, Hfz Imtiaz Ahmed Bey, Hfz Ahmed Phiri, Hfz Abdullah Badat, Hfz Usayd Bey'",
Wendywood Musallah,,Wendywood Musallah,Wendywood Musallah,SA,-26.0700192,28.076673,1,"'Qari Muhammad Irfan Ravat, Hafidh Hamza Essack, Hafidh Hudhaifa Mosam'",
97 Bowling Avenue,,97 Bowling Avenue,97 Bowling Avenue,SA,-26.0693531,28.0763824,1.5,"'Hafidh Ismaeel Ayob, Hafidh Irfaan Gani, Hafidh Ebrahim Seedat, Hafidh Faiyaad Mahomed, Hafidh Ziyaad Mahomed'",
Residence - 9 Freezia Street,,Residence - 9 Freezia Street,Residence - 9 Freezia Street,SA,-26.0700489,28.0855947,2,"'Hafidh Zaakir Cassim, Hafidh Yahya Docrat, Hafidh Yusuf Moosa, Hafidh Zuhayr Ally, Hafidh Sulaymaan Patel'",
"Cluster 6, 217 Dodge St",,"Cluster 6, 217 Dodge St","Cluster 6, 217 Dodge St",SA,-26.043216,28.0691111,3,"'Hafidh Ebrahim Lambat, Hafidh Imtiyaaz Seedat, Hafidh Zaid Bismillah, Hafidh Uzayr Desai'",
Asharah Mubasharah Masjid & Islamic Centre,,Asharah Mubasharah Masjid & Islamic Centre,Asharah Mubasharah Masjid & Islamic Centre,SA,-25.7036545,27.2485057,1,"'Qari Anees Bhikoo, Ml Ebrahim Rawat, Mufti Khabbaab, Mufti Abdur Rahman Banubhai'",
Orchards Hall,,Orchards Hall,Orchards Hall,SA,-26.0913698,28.099752,2,"'Hf Ammar Dosh, Hf Uwais Suliman, Hf Hamza Suliman, Hf Abdullah Akhalwaya, Hf Huzaifah Numan'",
Orient Islamic School Musallah,,Orient Islamic School Musallah,Orient Islamic School Musallah,SA,-29.8486583,31.010594,1.5,"'Hf Zubair Rawat, Hf Luqmaan Moola, Hf Ibraahim Hoosen, Hf Muhammad Hoosen, Hf Muhammad Cheema, Hf Muhammad Muzzammil Kassim'",
Himayatul Islam Masjid,,Himayatul Islam Masjid,Himayatul Islam Masjid,SA,-26.3189427,27.835493,1,"'Ml Nazir Ahmed Jassat, Haafidh Ziyaad Varachia, Haafidh Masud Goolbhai, Ml Yusuf Jassat, Mufti Safwaan Jassat'",
Jaamea Masjid,,Jaamea Masjid,Jaamea Masjid,SA,-26.1689968,27.7591553,1,"'Mf Muhammad Kholvadia, Mf Sa'eed Azmi, Hf Muaawiya Bulbulia'",
Darul Uloom,,Darul Uloom,Darul Uloom,SA,-26.1768003,27.7574504,1,"'MI Abdullah Patel, MI Binyaameen Vawda, MI Muhammad Ghanchi'",
Masjid-ul-Ansar,,Masjid-ul-Ansar,Masjid-ul-Ansar,SA,-26.1663817,27.752185,1,"'Qr Abdullah Motara, Qr Abdurrahman Eshak, Mf Abu Bakr Muhammad'",
Masjid-ut-Taqwa,,Masjid-ut-Taqwa,Masjid-ut-Taqwa,SA,-26.1706807,27.7483345,1,"'Mf Muhammad Seedat, Hf Uthmaan Desai, Hf Muaaz Mia'",
Nurul Islam Masjid,,Nurul Islam Masjid,Nurul Islam Masjid,SA,-26.3126354,27.8409849,1,"'Hf M. Hanief Patel, MI Sulaimaan Ravat, Hf Muhammad Pandor, Hf Naadir Rawoot, Hf Nazeer Kara, Hf Mubeen Akhalwaya, Hf Muhammed Ravat, MI Yusuf Ravat, Hf Abdullah Ravat, Hf Uzair Kara'",
Nurul Islam,Hall 1,Nurul Islam,Nurul Islam,SA,-26.3129425,27.84206,2,"'Hf Yusuf Bathia, Hf Yusuf Bulbulia, Hf Muaz Ravat, Hf Abdullah Hoosen'",
Nurul Islam,Hall 2,Nurul Islam,Nurul Islam,SA,-26.3129425,27.84206,3,"'Hf Yusuf Lorgat, Hf Muhammed Ravat, Hf Imraan Khan, Hf Ahmadullah Sardar'",
Masjid Quwwatul Islam,,Masjid Quwwatul Islam,Masjid Quwwatul Islam,SA,-26.3899356,28.1434878,1,"'Qari Shabbir Ahmad Panchbaya, Moulana Muhammad Qasim Desai, Hafidh Nazir Jeewa, Hafidh Muhammad Suhail Murshid, Hafidh Muhammad Abdul Rahman Dladla'",
Masjid Siddique,,Masjid Siddique,Masjid Siddique,SA,-26.343328,27.8601267,1,"'Hf Zakariyya Pandor, Hf Talha Seedat, Qr Maseehullah Pandor, MI Yaseen Cajee'",
Abu Bakr Jalapor Musallah,,Abu Bakr Jalapor Musallah,Abu Bakr Jalapor Musallah,SA,-25.7893735,28.1085876,1,'ML Muhammed Ameer Surtee',
Masjid ash-Shakirin,,Masjid ash-Shakirin,Masjid ash-Shakirin,SA,-26.3135214,27.8335978,1,"'Hf Muhammad Asim Patel, Hf Abdurahman Saleh, Hf Mohammed Kadodia, Hf Hassan Bhana, Hf Abdulrahman Rangrej, Hf Hamza Moosa'",
Braelyn Heights Mosque,,Braelyn Heights Mosque,Braelyn Heights Mosque,SA,-33.0025907,27.8855516,1,"'Molana Taha Vahora, Molana Inayat Kadu, Qari Sa'ad Khalifa, Hafiz As'ad Penwala'",
Residence - Poplar Street,,Residence - Poplar Street,Residence - Poplar Street,SA,-29.0526405,30.6013998,1.25,"'Qari Usman Falahi, ML Hamzah Randera, Hafiz Rizwan Adat'",
Lakefield Taraweeh,,Lakefield Taraweeh,Lakefield Taraweeh,SA,-26.1877434,28.290841,2,"'Moulana Muhammed Amin Hajat, Hafidh Hamzah Mahmood, Hafidh Saood Cassim, Hafidh Ebrahim Shariff Noor, Hafidh Muhammad Bhattay'",
Masjid-ul-Huda,,Masjid-ul-Huda,Masjid-ul-Huda,SA,-26.1772683,28.2973848,1,"'Hafidh Abdurrahman Saley, Hafidh Ismail Khalid, Hafidh Muhammed Ismail, Hafidh Ahmed Salajee, Hafidh Imtiaz Ghanchi'",
Masjid-e-Ashraf ,,Masjid-e-Ashraf ,Masjid-e-Ashraf ,SA,-26.3350349,27.8369125,1,'',
Masjid-e-Ashraf ,Extension,Masjid-e-Ashraf ,Masjid-e-Ashraf ,SA,-26.3350349,27.8369125,6,'',
Masjid-e-Ashraf,Classroom A,Masjid-e-Ashraf,Masjid-e-Ashraf,SA,-26.3350349,27.8369125,3,'',
Masjid-e-Ashraf,Classroom B,Masjid-e-Ashraf,Masjid-e-Ashraf,SA,-26.3350349,27.8369125,2,'',
Musallah Fatah,,Musallah Fatah,Musallah Fatah,SA,-26.30679,27.83305,1,"'Haafidh Abdullah Vally, Qari Abdullah Pelwan, Qari Zafeer Patel, Qari Talha Batia'",
Masjid Rahmah,,Masjid Rahmah,Masjid Rahmah,SA,-25.8254755,28.0618487,2,"'Mufti Abu Bakr Kashmiri, Haafiz Abu Zar Aal Abdullah, Haafiz Abu Bakr Aal Abdullah, Haafiz Muhammed Sahl Dockrat'",
Masjid Rahmah,,Masjid Rahmah,Masjid Rahmah,SA,-25.8254755,28.0618487,3,'Abdullah Ibn Rashid',
Masjid Muhaajireen wal Ansaar,,Masjid Muhaajireen wal Ansaar,Masjid Muhaajireen wal Ansaar,SA,-26.3130142,27.852383,1,'',
Masjid Muhaajireen wal Ansaar ,Hifz Hall,Masjid Muhaajireen wal Ansaar ,Masjid Muhaajireen wal Ansaar ,SA,-26.3130142,27.852383,3,'',
Delhi Palace Hall,,Delhi Palace Hall,Delhi Palace Hall,SA,-26.3254538,27.856885,1,"'Hafidh Mohammed Raees Amanjee, Hafidh Muhammed Tameem Sibda'",
Madrasah Akhtarul Uloom,,Madrasah Akhtarul Uloom,Madrasah Akhtarul Uloom,SA,-29.8366361,30.986428,1,"'Mawlana Maseehullah Amod, Hafiz Muhammed Agjee, Hafiz Ilyas Suliman, Hafiz Ahmed Omar'",
Saaberie Jumu'ah Masjid,,Saaberie Jumu'ah Masjid,Saaberie Jumu'ah Masjid,SA,-26.32101,27.8323,1,"'Hafiz Talha Manjra, Hafiz Saleem Patel, Hafiz Zaheer Mia, Hafiz Suhail Panchbhaya, ML Saalim Bhaiyat'",
Masjid Falah-e-Darain,,Masjid Falah-e-Darain,Masjid Falah-e-Darain,SA,-26.3728549,28.122851,1,"'Hafidh Imtiaaz bin Ibrahim Khan, Hafidh Sha'baan, Hafidh Muhammad bin Ibrahim Lambat'",
Masjid Khalid bin Waleed,,Masjid Khalid bin Waleed,Masjid Khalid bin Waleed,SA,-26.3342774,27.8334115,1,"'Ml Tariq Terezo, Hafidh Muhammad Irfan Vallie, Hafidh Muhammad Moola, Hafidh Muhammad Amanjee'",
Masjid Khalid bin Waleed ,1st Floor,Masjid Khalid bin Waleed ,Masjid Khalid bin Waleed ,SA,-26.3342774,27.8334115,1.5,"'Moulana Zaheer Jada, Hafidh Mohammed Ameen Hassan, Hafidh Usaamah Mayet, Hafidh Mohammed Mayet'",
Masjid-ul-Ansaar,,Masjid-ul-Ansaar,Masjid-ul-Ansaar,SA,-26.1869122,28.2821825,1,"'Moulana Azhar Laher, Hafidh Haroon Abilu, Hafidh Uthmaan Saley, Moulana Anees Ahmad Munchi'",
Boksburg Islamic Institute,,Boksburg Islamic Institute,Boksburg Islamic Institute,SA,-26.1811118,28.26708,1,"'Qari MI Mohammed Fayyaaz Laher, Moulana Ridwaan Moosa, Moulana Ahmad Lorgat, Hafidh Uthmaan Haffejee'",
Masjid-e-Bilaal,,Masjid-e-Bilaal,Masjid-e-Bilaal,SA,-26.3238028,27.8466557,1,"'Ml Adnan Mia, Hafidh Faheem Haffejee, Hafidh Mohamad Shakiel, Hafidh Mohamad Javed, MI Mohamad Kara'",
Masjid-e-Bilaal (School Musalla),School Musallah,Masjid-e-Bilaal (School Musalla),Masjid-e-Bilaal (School Musalla),SA,-26.3238028,27.8466557,2,"'Hafidh Hamza Kara, Hafidh Abdurrahman Kara, Hafidh Hisham Mohamad, Ml Yunus Mia, ML Ebrahim Daya'",
Maktab Muhaajireen wal Ansaar,,Maktab Muhaajireen wal Ansaar,Maktab Muhaajireen wal Ansaar,SA,-26.32322,27.8560905,2,'',
Masjid Al Abraar,,Masjid Al Abraar,Masjid Al Abraar,SA,-33.9688155,25.6280437,1,"'Hf Ismail Kathrada,  Hf M Aameen Khan,  Hf Rasheed Agherdien,  Hf Safwaan Ally,  Sh Imad Lagardien'",
Masjid Abu Bakr,,Masjid Abu Bakr,Masjid Abu Bakr,SA,-33.9195772,25.5297113,1,"'Ml Anwar Variawa, Hf Salim Ally, Hf Muhammad Rawat'",
Musallah Abu Bakr,,Musallah Abu Bakr,Musallah Abu Bakr,SA,-33.9099699,25.5444714,1,"'Hf Ubaidullah Abrahams, Hf Ihsaan Abrahams , Ml Abdullah Abbas'",
Masjid ul-Akbar,,Masjid ul-Akbar,Masjid ul-Akbar,SA,-33.9605273,25.6229028,1,"'Hf Ashraf Aman , Hf Yahyaa Noorshib, Hf Safwaan Shaikh , Hf Goesnie Jappie '",
Al Bayaan,,Al Bayaan,Al Bayaan,SA,-33.933895,25.5794266,1,"'Hf Usaama , Hf Musab, Hf Asad , Hf Hamza'",
Masjid Awaatif,,Masjid Awaatif,Masjid Awaatif,SA,-33.92094,25.5552001,1,"'Hf Zubair Loonat, Hf Huthaifah Nackerdien, Hf Amir Desai, Hf Abubhaker Carloo'",
Al Azhar Masjid,,Al Azhar Masjid,Al Azhar Masjid,SA,-33.91905,25.53601,1,"'Hf Adhil Ariengton, Hf Zubair Jamal, Hf Usaamah Patel, Hf M Sa'ad Laher / Hf Shuaib Ariengton, Hf Mohammed Ershaad , Hf Muhammed Tagari '",
Korsten Jamaat Khana,,Korsten Jamaat Khana,Korsten Jamaat Khana,SA,-33.9336446,25.5807106,1,'',
Masjid Fuqara,,Masjid Fuqara,Masjid Fuqara,SA,-33.9245777,25.5405012,1,"'Mf Siraj Desai, Ml M Muaawiyah Desai'",
Ghuraba,,Ghuraba,Ghuraba,SA,-33.8868379,25.5193224,1,"'Hf Yaseen Desai , Hf Huzaifa Ally , Ml Husain Kapery '",
Greenacres Musallah,,Greenacres Musallah,Greenacres Musallah,SA,-33.947682,25.5794585,1,"'Hf Umar Saley , Hf Sulaiman Adam'",
Musallah Hamza,,Musallah Hamza,Musallah Hamza,SA,-33.9215708,25.5501197,1,"'Hf Shuaib Astrie, Hf Abdul Rasheed Yusuf , Hf Ramathan Mohamed'",
Masjid Huda,,Masjid Huda,Masjid Huda,SA,-33.9317296,25.5784931,1,"'Ml Abduraghmaan Nackerdien, Hf Mukhtaar Ahmed , Hf Uzair Abrahams , Hf Raaid Samsodein, Hf Saeed Agherdien '",
North End Masjid,,North End Masjid,North End Masjid,SA,-33.9508518,25.6097608,1,'',
Kuyga Musallah,,Kuyga Musallah,Kuyga Musallah,SA,-33.9241702,25.4436443,1,"'Hf Muaawiya Badsha, Hf M Hussein Lala '",
Masjid Mansoor,,Masjid Mansoor,Masjid Mansoor,SA,-33.9230419,25.5273688,1,"'Qr Yunus Badsha, Hf Saifullah Badsha , Ml Muhammad Badsha'",
Masjid Mansoor Hall,,Masjid Mansoor Hall,Masjid Mansoor Hall,SA,-33.9230419,25.5273688,1,"'Ml Shareef Kapery , Hf Irshaad Kapery , Hf Idrees Dursot'",
Masjidul Maseeh,,Masjidul Maseeh,Masjidul Maseeh,SA,-33.9286699,25.5050958,1,"'Hf M Asad Ahmedjan, Mf Yusuf Moosagie , Hf Suleman Desai '",
Motherwell Masjid,,Motherwell Masjid,Motherwell Masjid,SA,-33.8012508,25.5808888,1,"'Hf Bashier Witbooi , Sh Abdurahman Abdullah '",
Nasruddin 1,,Nasruddin 1,Nasruddin 1,SA,-33.9193546,25.5371598,1,"'Hf Umar Hendricks , Hf M Siddeeq Hendricks '",
Nasruddin 2,,Nasruddin 2,Nasruddin 2,SA,-33.9244104,25.5519288,1,'Hf Ameer Dolley',
Masjid e Noor,,Masjid e Noor,Masjid e Noor,SA,-33.8670387,25.5002441,1,'Ml Raees Kisten',
Jamaat Khana Saeed,,Jamaat Khana Saeed,Jamaat Khana Saeed,SA,-33.9300193,25.5652286,1,"'Ml M Ilyas Cupp , Hf Shuaib Asmal , Hf Suhail Ershad , Ml Shuaib Malidadi , Hf Yahya Cupp'",
Masjidus Salaam,,Masjidus Salaam,Masjidus Salaam,SA,-33.9741909,25.5492707,1,"'Hf Aarif Gangat , Hf Muhammad Seedat '",
Masjid Saaliheen,,Masjid Saaliheen,Masjid Saaliheen,SA,-33.890121,25.528704,1,"'Ml Ilyaas Hanslot , Qr Abduraheem Hatia'",
Masjid Shakireen,,Masjid Shakireen,Masjid Shakireen,SA,-33.9212789,25.5239665,1,'',
St Albans Prison,,St Albans Prison,St Albans Prison,SA,-33.9108231,25.3465402,1,"'Qr Suhail , Hf Abdur-rahmaan Ravat , Hf M Yaseen Ravat , Hf Usaama Ravat '",
Suffah Musallah ,,Suffah Musallah ,Suffah Musallah ,SA,-33.9286743,25.5722632,1,"'Hf M Hussain Amodjee , Hf Anas Nakhooda, Hf Muhammed Balante '",
Masjidut Taqwa,,Masjidut Taqwa,Masjidut Taqwa,SA,-33.9193288,25.5608927,1,"'Hf M Zain Gamieldien, Hf Adam Karolia , Hf Naasir Abrahams , HF M Nur Salie '",
Westering Masjid,,Westering Masjid,Westering Masjid,SA,-33.9346003,25.5153431,1,"'Hf Mohammad Ameen , Hf Naasik Williams , Hf Faheem Vahed , Hf Zaheer Motala , Sh Idris Sinoya'",
Masjid Uthmaan,,Masjid Uthmaan,Masjid Uthmaan,SA,-33.9155723,25.5487284,1,"'Hf Tayyib Moosagie , Sh Jazeem Chimenya , Hf M Zaheer Wahed'",
Masjidul Haq,,Masjidul Haq,Masjidul Haq,SA,-33.7645872,25.3890621,1,"'Hf Salaahudeen Ziyaee, Hf Abdullah Senudi '",
Masjid Ibaadur-Rahmaan,,Masjid Ibaadur-Rahmaan,Masjid Ibaadur-Rahmaan,SA,-33.7691786,25.4013707,1,"'Ml Shuayb Laher , Hf M Adam Jeeva , Qr Tanzeelur Rahman Jassiem , Hf Mughammad Muaath'",
Masjid Mumineen,,Masjid Mumineen,Masjid Mumineen,SA,-33.7653772,25.3900975,1,"'Hf Ilyaas Ally , Hf Imraan Mohamed, Sh Umar Umali'",
Masjidul Qudama,,Masjidul Qudama,Masjidul Qudama,SA,-33.7631827,25.3938698,1,'',
Jaame Masjid,,Jaame Masjid,Jaame Masjid,SA,-26.0919996,28.097454,1,"'Maulana Zubair Hajat, Hafidh Zakariya Hajat, Hafidh Muhammed Bhamjee'",
Masjid Luqman,,Masjid Luqman,Masjid Luqman,SA,-26.0919996,28.097454,1,"'Mufti Humayd Ali, Maulana Irfaan Rajah, Hafidh Uthman'",
Marlboro Madressah,,Marlboro Madressah,Marlboro Madressah,SA,-26.0919996,28.097454,3,"'Maulana Muhammad Daya, Hafidh Sameer Zafar Khan'",
Hafidh Naushaad Khan Residence,,Hafidh Naushaad Khan Residence,Hafidh Naushaad Khan Residence,SA,-26.0919996,28.097454,3,"'Hafidh Naushaad Khan, Hafidh Muhammad Mustafa Khan, Hafidh Muhammed Khan'",
Hafidh Ziyaad Jogee Residence,,Hafidh Ziyaad Jogee Residence,Hafidh Ziyaad Jogee Residence,SA,-26.094732,28.09258,3,"'Hafidh Zayaan Jogee, Hafidh Zeedaan Jogee'",
Essack Residence,,Essack Residence,Essack Residence,SA,-26.0952352,28.0938496,2,"'Hafidh Yusuf Essack, Hafidh Abdullah Hassen, Hafidh Jameel Moya'",
Dr Salloo Residence,,Dr Salloo Residence,Dr Salloo Residence,SA,-26.0936859,28.0932,2,"'Hafidh Ziyaan Patel, Hafidh Uzair Lambat, Hafidh Ubaidullah Ahmed'",
Essop Residence - Musallah,,Essop Residence - Musallah,Essop Residence - Musallah,SA,-26.090811,28.1027908,1,"'Maulana Ismaa'eel Mahmood, Maulana Afzal Degam, Hafidh Muhammed Yusuf Suliman'",
Ashraful Uloom (Old Musallah) ,,Ashraful Uloom (Old Musallah) ,Ashraful Uloom (Old Musallah) ,SA,-26.090811,28.1027908,1,"'Maulana Suhail Wadee, Maulana Imdadullah, Hafidh Riaad Hassim'",
Aghtar Akoojee Residence,,Aghtar Akoojee Residence,Aghtar Akoojee Residence,SA,-26.0905013,28.1001815,1.5,"'Hafidh Muhammed Hassen, Hafidh Muhammad Akoojee, Hafidh Muaaz Mohamed'",
Mufti Hajats Residence,,Mufti Hajats Residence,Mufti Hajats Residence,SA,-26.0952352,28.0938496,1,"'Qari Aasif Ravat, Hafidh Zaahid Hajat, Hafidh Ziyaad Chotia'",
Mohammed Laher Residence,,Mohammed Laher Residence,Mohammed Laher Residence,SA,-26.0899972,28.0995347,1,"'Hafidh Sufyaan Laher, Hafidh Suhail Laher, Hafidh Saihaan Laher'",
Shoqat Suliman Residence,,Shoqat Suliman Residence,Shoqat Suliman Residence,SA,-26.0908062,28.0988709,1,"'Hafidh Ismaaeel Suliman, Hafidh Shuaib Seedat, Hafidh Hamza Makda'",
Abdurahman Dayas Residence,,Abdurahman Dayas Residence,Abdurahman Dayas Residence,SA,-26.091383,28.090786,2,"'Hafidh Abdurahman Daya, Hafidh Zakariya Seedat, Hafidh Huzaifa Daya, Hafidh Yusuf Seedat, Hafidh Mohammed Loonat'",
Hafidh Ziyaads Residence,,Hafidh Ziyaads Residence,Hafidh Ziyaads Residence,SA,-26.0752286,28.0945854,1.5,"'Hafidh Muaz Mehtar, Hafidh Talha Hajee Idrees, Hafidh Mu'awiyah Mehtar, Hafidh Mohammed Mehtar, Hafidh Muhammed Mustafa Dhorat'",
Hafidh Yusuf Daya Residence,,Hafidh Yusuf Daya Residence,Hafidh Yusuf Daya Residence,SA,-26.091338,28.093431,1,"'Hafidh Yusuf Daya, Hafidh Abdullah Daya, Hafidh Mohammed Daya'",
Mayet Residence,,Mayet Residence,Mayet Residence,SA,-26.0908062,28.0988709,1,"'Hafidh Muhammed Mayet, Hafidh Muaaz Kara'",
Zafar Khan Residence,,Zafar Khan Residence,Zafar Khan Residence,SA,-26.1007062,28.069207,1,"'Hafidh Adil Zafar Khan, Hafidh Omair Zafar Khan, Hafidh Ali Zafar Khan'",
Alex Musallah,,Alex Musallah,Alex Musallah,SA,-26.0997865,28.0853964,1,"'Maulana Zakariya Daya, Hafidh Mohamed Bhana, Hafidh Mohamed Ridwaan Daya, Hafidh Zakir Bellim'",
Sunninghill,,Sunninghill,Sunninghill,SA,-26.0327309,28.0679718,1,"'Hafidh Ozayr Karodia, Hafidh Yusuf Laily, Hafidh Saajid Bhayat'",
Mehtar Residence,,Mehtar Residence,Mehtar Residence,SA,-26.0842693,28.1000565,1,"'Hafidh Zakariyya Mehtar, Hafidh Mohammed Padia, Hafidh Zubair Padia, Hafidh Ahmed Hafejee'",
Masjidul Furqaan,,Masjidul Furqaan,Masjidul Furqaan,SA,-26.1681634,28.0732369,1,"'Qari Usamah Essack, Ml Mohamed Ridwaan Hoosen'",
Masjidul Furqaan,Left Wing,Masjidul Furqaan,Masjidul Furqaan,SA,-26.168024,28.073199,3,'Hafiz Dr Muhammad Omar and Crew',
Masjidul Furqaan,Classroom 1,Masjidul Furqaan,Masjidul Furqaan,SA,-26.168313,28.073424,2,'Hafiz Ismail Peer and Crew',
Masjidul Furqaan,Classroom 2,Masjidul Furqaan,Masjidul Furqaan,SA,-26.168291,28.073317,2,'Hafiz Zunaid Mia and Crew',
Masjidul Furqaan,Classroom 6,Masjidul Furqaan,Masjidul Furqaan,SA,-26.168262,28.073583,1.5,'Hafiz Ahmed Mohamed and Crew',
Masjidul Furqaan,Classroom 5,Masjidul Furqaan,Masjidul Furqaan,SA,-26.168134,28.073615,1.25,'Hafiz Nazeer Moosa and Crew',
Masjid Nur,,Masjid Nur,Masjid Nur,SA,-26.3270548,27.8398698,1,"'Ml Kifaayatullah, Hf Zaakir Cassim, Hf Asad Kazi, Hf Muhammaed Hanslod, Ml Muhammed S Monia'",
Masjid Omar Farouk,,Masjid Omar Farouk,Masjid Omar Farouk,SA,-26.3238689,27.8586567,1,'',
Masjid Omar Farouk Hall,Hall,Masjid Omar Farouk Hall,Masjid Omar Farouk Hall,SA,-26.3238689,27.8586567,2,"'Ml Munshi, Ml Abdul Haadi'",
Masjid Omar Farouk Classroom,Classroom,Masjid Omar Farouk Classroom,Masjid Omar Farouk Classroom,SA,-26.323711,27.8586567,2,"'Ml Huzaifah, Ml Talha Moola'",
Musjid E Noor,,Musjid E Noor,Musjid E Noor,SA,-29.8294568,30.9882595,1,"'Ml Zaheer Satharia, Ml Umar Moolla, Ml Muhammad Munga, Ml Faheem Asmall'",
Jamia Masjid Stanger,,Jamia Masjid Stanger,Jamia Masjid Stanger,SA,-29.336512,31.2908867,1,"'Ml Fahim Desai, Qari Ridwaan Sheikh, Hf Imraan Devangree, Hf Ebrahim Omarjee, Hfz Ahmed Mulla'",
Lakefield Ext 21 Musallah,,Lakefield Ext 21 Musallah,Lakefield Ext 21 Musallah,SA,-26.1760777,28.2820837,1,"'Ml. Tahseen Kardame, Hfz. Huzaifah Bismilla, Hfz. Ihsaan Ismail, Hfz. Zakir Laher'",
Musallaah Al Muhaajireen,,Musallaah Al Muhaajireen,Musallaah Al Muhaajireen,SA,-26.1964769,28.29841,1,"'Qari Iqbal Vankaneri, Qari Abdul Salaam Biro, Qari Muhammed Moolla, Hfz. Abdur Raheem Carrim'",
Masjidus Salaam,,Masjidus Salaam,Masjidus Salaam,SA,-25.7961895,28.0965478,1,"'Ml Moosa Kholvadia, Ml Ahmad Dockrat, Qari Binyaameen, Hfz Mohammed Bhika, Hfz Safvan Patel'",
Masjid Hamzah,,Masjid Hamzah,Masjid Hamzah,SA,-25.8078072,28.0964481,1,"'Ml Huzaifa Abbas, Ml Salmaan Jeena, Hfz Suhail Mohamed, Hfz Ahmad Chohan'",
Masjid Bilaal,,Masjid Bilaal,Masjid Bilaal,SA,-25.8172026,28.0803156,1,"'Hfz Siraaj Ellemdin, Hfz Zain Sujee, Hfz Junaid Barmania, Hfz Abdur Rahman Jogee, Hfz Hamza Ellemdin, Hfz Huzaifah Ellemdin'",
Masjid Ansaar,,Masjid Ansaar,Masjid Ansaar,SA,-25.7852402,28.0949462,1,"'Ml Abdullah, Qari Moosa'",
Masjid al Noor (CIS),,Masjid al Noor (CIS),Masjid al Noor (CIS),SA,-25.7890952,28.1002379,1,"'Mufti Aamir, Mufti Khalil Ahmed, Ml Umar Patel, Sh Suliman Bindullah'",
Masjid Al Haqq,,Masjid Al Haqq,Masjid Al Haqq,SA,-25.7856002,28.1099424,1,"'Imam AbdiQadir Abdi Buul, Imam Burhan Salem Yusuf, Sh Mohamed Ataya, Imam Abdifatah Rashid Mohamed, Imam Sadiq Maalim Geele'",
372 Bengal Street Musallah,,372 Bengal Street Musallah,372 Bengal Street Musallah,SA,-25.7837206,28.0921023,1,'?',
Musallah Al Islaamiyyah,,Musallah Al Islaamiyyah,Musallah Al Islaamiyyah,SA,-25.805816,28.095973,1,'Hfz Muhammad Sa?ad Younus',
Madrassah Talimul Haq ,,Madrassah Talimul Haq ,Madrassah Talimul Haq ,SA,-25.7895388,28.0983254,1,'?',
Musallah @ 55 Raslouw,,Musallah @ 55 Raslouw,Musallah @ 55 Raslouw,SA,-25.8559944,28.1095754,1,"'Ml Abdullah Hoosen, Ml Bilaal Eshak, Hfz Aayan Khan'",
Musallah Umar Farouk ,,Musallah Umar Farouk ,Musallah Umar Farouk ,SA,-25.8224945,28.1433766,1,"'Ml Mohammed Naeem Osman, Hfz Yusuf Manga, Hfz Mohammed Shaik, Hfz Aboobaker Noorani'",
Masjid Ismael,,Masjid Ismael,Masjid Ismael,SA,-25.7490935,28.0670241,1,"'Hfz Ismail, Hfz Hoosein, Hfz Hassen'",
Valhalla Musalla @ the Spar,,Valhalla Musalla @ the Spar,Valhalla Musalla @ the Spar,SA,-25.8092006,28.1541338,1,'?',
308 Yellow Tail - Raslouw Gardens,,308 Yellow Tail - Raslouw Gardens,308 Yellow Tail - Raslouw Gardens,SA,-25.8599167,28.1112478,1,"'Hfz Muhammad Carrim, Hfz Mikaeel Aboo, Hfz Mikaeel Gani'",
Masjid Al Noor ,,Masjid Al Noor ,Masjid Al Noor ,SA,-25.743711,28.1980024,1,"'Qari Noman Shaikh, Ml Jurain Moosa'",
Masjid Khadijah (RA) ,,Masjid Khadijah (RA) ,Masjid Khadijah (RA) ,SA,-25.7483118,28.2205558,1,"'Ml Abdullah Moola, Ml Ahmed Moola, Hafiz Ubaidullah Kadwa, Ml Ebrahim Chad'",
Masjid Uthmaan @ Kit Kat Plaza,,Masjid Uthmaan @ Kit Kat Plaza,Masjid Uthmaan @ Kit Kat Plaza,SA,-25.7480281,28.1621478,1,'?',
Mahad Al Nur ,,Mahad Al Nur ,Mahad Al Nur ,SA,-25.8322321,28.1103538,1,'?',
Nexia SAB&T ,,Nexia SAB&T ,Nexia SAB&T ,SA,-25.8733848,28.1887347,1,"'Hfz Mukarram Arbee, Hfz Humayoon Suria, Hfz Huzaifa Khan, Hfz Muhammed Yaameen Adam, Hfz Jameel Essop, Hfz Imtiaz Ebrahim'",
Masjid E Sulaimaan ,,Masjid E Sulaimaan ,Masjid E Sulaimaan ,SA,-25.67283,28.1745206,1,"'Qari Aslam Kadia, Hfz Hamzah Vahed, Hfz Ismail Vahed, Hfz Al-Amin Muhammed, Hfz Hasan Moosa'",
Silver Lakes Muslim Community ,,Silver Lakes Muslim Community ,Silver Lakes Muslim Community ,SA,-25.7764282,28.370527,1,'?',
Itireleng Masjid,,Itireleng Masjid,Itireleng Masjid,SA,-25.7871571,28.0736238,1,"'Hfz Laeeq, Hfz Yusuf'",
Diesploot,,Diesploot,Diesploot,SA,-25.9349213,28.0198337,1,"'Hfz Khalid, Hfz Ishaaq'",
Metro Musallah Montana,,Metro Musallah Montana,Metro Musallah Montana,SA,-25.6779807,28.2364662,1,'?',
Imam Bukhari Islamic Centre,,Imam Bukhari Islamic Centre,Imam Bukhari Islamic Centre,SA,-25.7456146,28.1693998,1,"'Imam Mohamed Hassan, Qari Dahaa'",
Masjid Aa'isha,,Masjid Aa'isha,Masjid Aa'isha,SA,-25.8157863,28.0930489,1.25,"'Ml Abdus Salaam Kholvadia, Ml Muawiya Kholvadia, Hfz Haroon Kholvadia, Hfz Maseehullah Kholvadia, Hfz Muhammad Amod'",
Jumma Masjid ,,Jumma Masjid ,Jumma Masjid ,SA,-25.788662,28.106604,1.25,"'Hfz Tosif, Hfz Sayyad Ali Abdullah, Hfz Mohamed Omary'",
Ghausia Musjid ,,Ghausia Musjid ,Ghausia Musjid ,SA,-25.7825912,28.1080616,1.25,"'Ml Shoaib Vali, Ml Saeedi, Hfz Salim, Hfz Muzaffar, Hfz Wasim'",
Masjid Abu Bakr Siddique,,Masjid Abu Bakr Siddique,Masjid Abu Bakr Siddique,SA,-25.8073652,28.0895122,1.25,"'Hfz Riyaad Osman, Hfz Suhail Seedat, Hfz Ahmed Mukhtar Khan, Hfz Yaseen Suleman, Hfz Hasan Salim'",
Heuweloord Musallah,,Heuweloord Musallah,Heuweloord Musallah,SA,-25.8799421,28.1149752,1.25,"'Hfz Ismaiel Brey, Hfz Mohamed Hasan, Sh Shuayb, Hfz Abubaker Carrim, Hfz Ahmed Ibrahim'",
Celtic Manor Club House,,Celtic Manor Club House,Celtic Manor Club House,SA,-25.8388621,28.1262156,1.25,"'Qari Muhammed Jabir Salloo, Hfz Muhammed Moosa'",
Madina Musallah Eldo ,,Madina Musallah Eldo ,Madina Musallah Eldo ,SA,-25.8322067,28.1442453,1.25,"'Hfz Saif ur Rehman, Hfz Rashid ur Rehman, Hfz Ismaeel Tar'",
"Buyuk Chamlija - Socio, Eco, Techno Village",,"Buyuk Chamlija - Socio, Eco, Techno Village","Buyuk Chamlija - Socio, Eco, Techno Village",SA,-25.8254819,28.1112433,1.25,'?',
Masjid-us-Siddique ,,Masjid-us-Siddique ,Masjid-us-Siddique ,SA,-25.7507605,28.0905779,1.25,"'Hfz Idrees, Hfz Husein, Hfz Muhammad'",
Faizane Madina ,,Faizane Madina ,Faizane Madina ,SA,-25.7960657,28.1059305,1.25,'?',
Faizane Raza ,,Faizane Raza ,Faizane Raza ,SA,-25.7543268,28.1103454,1.25,'?',
Faizan e Sayeda Fatima ,,Faizan e Sayeda Fatima ,Faizan e Sayeda Fatima ,SA,-25.7460321,28.1506688,1.25,'?',
Faizan e Jeelan ,,Faizan e Jeelan ,Faizan e Jeelan ,SA,-25.845266,28.144007,1.25,"'Ml Riyaz Madani, Hfz Mukhtar, Hfz Shareef'",
Menlyn Retail Park,,Menlyn Retail Park,Menlyn Retail Park,SA,-25.7877435,28.2772887,1.25,"'Hfz Ammar Joosub, Hfz Mohammad S. Carrim, Hfz Yaqeen Carrim'",
Waterkloof Ridge Islamic Centre,,Waterkloof Ridge Islamic Centre,Waterkloof Ridge Islamic Centre,SA,-25.7995844,28.2371892,1.25,'?',
"Sayidina Alli RA Islamic Centre (Baard Road, Raslouw)",,"Sayidina Alli RA Islamic Centre (Baard Road, Raslouw)","Sayidina Alli RA Islamic Centre (Baard Road, Raslouw)",SA,-25.841513,28.1188239,1.25,"'Hfz Talha Mateen Mohamed, Hfz Tahir Osman, Qari Ahmad Raza'",
"Musallah @ 438 Senorita Str, Erasmia",,"Musallah @ 438 Senorita Str, Erasmia","Musallah @ 438 Senorita Str, Erasmia",SA,-25.7997477,28.0891584,1.25,"'Hfz Seraj Ravat, Hfz Hassen Dawood, Hfz Muhammad Raees Hassen, Hfz Muhammad Ravat'",
Rasooli Centre ,,Rasooli Centre ,Rasooli Centre ,SA,-25.8531296,28.1279122,1.25,"'Hfz Wasim, Ml Muhammad Luqman, Sh Qaaid, Hfz Muhammad Gani'",
Raslouw Gardens Musallah,,Raslouw Gardens Musallah,Raslouw Gardens Musallah,SA,-25.8597618,28.1124472,1.25,"'Hfz Farhaan Jaffer, Hfz Muhammed Akoojee, Hfz M Saleem Cassim, Hfz Ridwaan Saleh Ameen, Hfz Zakariya Alli, Sh Yaseen Jafari'",
Madrasah Deen ul Islam ,,Madrasah Deen ul Islam ,Madrasah Deen ul Islam ,SA,-25.8565275,28.1043403,1.25,"'Sh Abdul Basit, Ml Idris Muhammad, Ml Abdul Razaq Jafali, Hfz Hamza Wahed'",
Madrassa Tul Owaisia ,,Madrassa Tul Owaisia ,Madrassa Tul Owaisia ,SA,-25.857958,28.1376791,1.25,"'Hfz Sulaiman Ally, Hfz Swaleh'",
Copperleaf Estate,,Copperleaf Estate,Copperleaf Estate,SA,-25.8802972,28.0484086,1.25,"'Hfz Mohamed Ravat, Hfz Ismail Abu Bakr'",
Masjid Hassanain ,,Masjid Hassanain ,Masjid Hassanain ,SA,-25.8063389,28.1414061,1.25,"'Sh Sayed, Sh Taha, Hfz Abdul Qadir Syed'",
Valhalla Musallah,,Valhalla Musallah,Valhalla Musallah,SA,-25.8092006,28.1541338,1.25,"'Ml Ismail, Hfz Abdul Qadir'",
Jaamia Masjid Eesterust,,Jaamia Masjid Eesterust,Jaamia Masjid Eesterust,SA,-25.7143976,28.3219946,1.25,'Sh Ali',
Masjid Jabal Un Noor ,,Masjid Jabal Un Noor ,Masjid Jabal Un Noor ,SA,-25.7001454,28.1578161,1.5,'Hfz Muneer Kola',
Musallah Muadh bin Jabal ,,Musallah Muadh bin Jabal ,Musallah Muadh bin Jabal ,SA,-25.8121204,28.0866539,1.5,"'Ml Muhammed Shahil Osman, Ml Abubakr Pandor, Hfz Muhammed Pandor'",
Mus'ab bin Umair RA Musallah @ Munaf's Hardware,,Mus'ab bin Umair RA Musallah @ Munaf's Hardware,Mus'ab bin Umair RA Musallah @ Munaf's Hardware,SA,-25.7886259,28.1091381,1.5,"'Moulana Amir, Hafiz Mohammed Moosa, Hafiz Mohamed Sagir'",
So Fine Venue ,,So Fine Venue ,So Fine Venue ,SA,-25.810871,28.0919498,1.5,"'Qari Salman Seedat, Qari Hamzah Dockrat'",
Gerhardsville Musallah,,Gerhardsville Musallah,Gerhardsville Musallah,SA,-25.851977,28.0380535,1.5,'?',
Westhills Musallah ,,Westhills Musallah ,Westhills Musallah ,SA,-25.8460626,28.103028,1.5,"'Hfz Anwar Sujee, Hfz Sufyaan Sujee, Hfz Safwaan Sujee'",
Eldo Grove Musallah ,,Eldo Grove Musallah ,Eldo Grove Musallah ,SA,-25.8278488,28.1421014,1.5,"'Ml Ismail Zafar, Hfz Sharfudin, Hfz Abdul Latweef (CPT)'",
Masjid Khadijah (RA) ,Classroom,Masjid Khadijah (RA) ,Masjid Khadijah (RA) ,SA,-25.7483118,28.2205558,1.5,"'Hfz Muhammed Khan, Hfz Sameer Mohamed, Hfz Muhammed Lutchka, Hfz Salman Mohamed, Hfz Talhah Mia'",
Eldo Village Clubhouse,,Eldo Village Clubhouse,Eldo Village Clubhouse,SA,-25.8417957,28.1247468,2,"'Hfz Yunus Osman, Hfz Rayhaan Osman, Hfz Muhammad Esmailjee, Ml Muhammad Hoosen, Hfz Yusuf Suliman'",
SCC Hall ,,SCC Hall ,SCC Hall ,SA,-25.810907,28.094828,2,"'Ml Talha Dockrat, Hfz Mohammed Kholvadia'",
Masjid Rahmah,,Masjid Rahmah,Masjid Rahmah,SA,-25.8254755,28.0618487,2,"'Mufti Abu Bakr Kashmiri, Hfz Abu Zar Aal Abdullah, Hfz Abu Bakr Aal Abdullah, Hfz Muhammed Sahl Dockrat'",
The Raslouw Orchid @ Ayoba Pharmacy ,,The Raslouw Orchid @ Ayoba Pharmacy ,The Raslouw Orchid @ Ayoba Pharmacy ,SA,-25.85739,28.1097217,2,'Mufti Abdullah Dockrat',
T.M.S Jamaat khana,,T.M.S Jamaat khana,T.M.S Jamaat khana,SA,-25.796142,28.0949091,2,"'Ml Khalid Kadri, Hfz Asiel Ahmed, Hfz Bilal Ravat, Hfz Muhammed Vally, Hfz Hamza Shivani, Hfz Muhammed Riyas Mohideen'",
Masjid Ansaar ,Upstairs,Masjid Ansaar ,Masjid Ansaar ,SA,-25.7852402,28.0949462,2,"'Hfz Abdramhaan, Hfz Ismail, Hfz Aboo Bakr'",
Erasmia Palms,,Erasmia Palms,Erasmia Palms,SA,-25.8112446,28.0946006,2,"'Hfz Abdur Rahman Ismail, Hfz Yusuf Ismail'",
The Gardens Musallah,,The Gardens Musallah,The Gardens Musallah,SA,-25.7823802,28.1132624,2,"'Hfz Abdullah Nawab, Hfz Sulaimaan Patel, Hfz Sayed Cassim, Ml Ashraf'",
"421 Johann Strauss Str, Erasmia",,"421 Johann Strauss Str, Erasmia","421 Johann Strauss Str, Erasmia",SA,-25.801963,28.0898781,2,"'Hfz Mikaeel Cassim, Hfz Nabil Mohammed, Hfz Nabeel Ebrahim, Hfz Mohammed Hoosen, Hfz Abdurrahman Haffejee, Hfz Muhammad Abdullah, Hfz Dayyaan Ebrahim'",
Brown Street Madrasah,,Brown Street Madrasah,Brown Street Madrasah,SA,-25.8116435,28.0863724,2,'?',
Eldo Lakes West ,,Eldo Lakes West ,Eldo Lakes West ,SA,-25.8265249,28.1462629,2,"'Hfz Dr Suhail Mohamed, Hfz Saqib Qureshi, Hfz Mohamed Ziya Bodhania'",
Central Islamic School ,Classroom 1,Central Islamic School ,Central Islamic School ,SA,-25.789901,28.100569,2,"'Ml Safwan, Hfz Ismail Abid, Hfz Hasan Mall, Hfz Saud Mall, Hfz Taahir Abid'",
Central Islamic School ,Classroom 2,Central Islamic School ,Central Islamic School ,SA,-25.789901,28.100569,2,"'Hfz Sufiyan Patel, Hfz Arham Patel, Hfz Omar Dokhrat, Hfz Mustakim Safri, Hfz Muhammed Sarveyar'",
Eldoraigne Musallah ,Classroom,Eldoraigne Musallah ,Eldoraigne Musallah ,SA,-25.8497343,28.1414804,2.5,"'Hfz Luqmaan Abram, Hfz Arshad Abed, Hfz Yusuf Bhoola, Hfz Yaseen Kalang, Hfz Muhammad Sujee, Hfz Ahmad Sujee'",
"364 Du Toit Street, Wierda Park",,"364 Du Toit Street, Wierda Park","364 Du Toit Street, Wierda Park",SA,-25.8675484,28.1489293,2.5,"'Hfz Abdur Rahmaan Kadwa, Hfz Rashid Ahmed Patel, Hfz Nawaaz Mohammed Abdullah, Hfz Muhammad Omarjee, Hfz Yusha Khan Patel, Hfz Yusuf Motala, Hfz Mikaeel Mallam'",
Eldo Meadows Clubhouse,,Eldo Meadows Clubhouse,Eldo Meadows Clubhouse,SA,-25.8333992,28.143268,2.5,"'Hfz Zayaan Dockrat, Hfz Zubair Asmal, Hfz Imad Jeebhay, Hfz Zhian Carim, Hfz Khalaid Sampson, Hfz Muzzammil Gaffoor, Hfz Abdus Shakoor Sadien'",
CIS Hall,,CIS Hall,CIS Hall,SA,-25.789901,28.100569,3,'Hfz Qaasim',
Masjid Aa'isha ,Ladies Hall,Masjid Aa'isha ,Masjid Aa'isha ,SA,-25.8157863,28.0930489,3,"'Qari Hamzah Ismail, Ml Muhammad Ahmed'",
PMT Civic Centre Hall,,PMT Civic Centre Hall,PMT Civic Centre Hall,SA,-25.7874101,28.1069525,3,"'Ml Anver Raza, Ml Wasim, Hfz Hussain'",
"370 Van Der Wall Str, Erasmia",,"370 Van Der Wall Str, Erasmia","370 Van Der Wall Str, Erasmia",SA,-25.8035947,28.0930901,3,"'Hfz Abdul Qadir Amos, Hfz Adnaan Tayob, Hfz Yahya Khan, Hfz Hamza Ameermia, Hfz Abdullah Cassim'",
"232 3rd Avenue, Laudium",,"232 3rd Avenue, Laudium","232 3rd Avenue, Laudium",SA,-25.7893735,28.1085876,3,'Ml Muhammed Ameer Surtee',
Tayfin Royale Hotel ,,Tayfin Royale Hotel ,Tayfin Royale Hotel ,SA,-25.8321404,28.1371115,3,"'Qari Sharfudeen, Sh Ahmed Ramadan'",
"51 Grace Crescent, Eldoglen West",,"51 Grace Crescent, Eldoglen West","51 Grace Crescent, Eldoglen West",SA,-25.8383895,28.1389267,5,'?',
Masjid Ansaar ,Upstairs,Masjid Ansaar ,Masjid Ansaar ,SA,-25.7852402,28.0949462,15,"'Hfz Mohammed, Hfz Yaseen'",
